{
"type": "FeatureCollection",
"name": "lakes_2022",
"crs": { "type": "name", "properties": { "name": "urn:ogc:def:crs:OGC:1.3:CRS84" } },
"features": [
{ "type": "Feature", "properties": { "lake_id": "GLK_001", "area_sqkm": 2.903, "year": "2022", "status": "Survived" }, "geometry": { "type": "Polygon", "coordinates": [ [ [ 74.63805165857498, 36.58 ], [ 74.638466319796478, 36.5830449449087 ], [ 74.63609260030762, 36.585717579765884 ], [ 74.632932974114738, 36.587958753301379 ], [ 74.62861258973922, 36.58917996493112 ], [ 74.623877271654933, 36.588904722960592 ], [ 74.62, 36.585403077802141 ], [ 74.61771010796167, 36.585259072880554 ], [ 74.61214757297472, 36.588369724658776 ], [ 74.603606238253391, 36.590088468767149 ], [ 74.598406326521101, 36.587672069658979 ], [ 74.602848657763431, 36.582828115877781 ], [ 74.606036357032764, 36.58 ], [ 74.608148309568264, 36.578045753304536 ], [ 74.609593652338589, 36.576302703000863 ], [ 74.609658580819243, 36.573636049734915 ], [ 74.61361153594288, 36.57319068041275 ], [ 74.615979337268158, 36.570765958402852 ], [ 74.62, 36.567158375621148 ], [ 74.625643508868336, 36.567038854258733 ], [ 74.62915089766507, 36.570246264805689 ], [ 74.627581300311505, 36.575334584423686 ], [ 74.626133533407085, 36.577820801745439 ], [ 74.631788094937633, 36.578056239680713 ], [ 74.63805165857498, 36.58 ] ] ] } },
{ "type": "Feature", "properties": { "lake_id": "GLK_002", "area_sqkm": 2.016, "year": "2022", "status": "Survived" }, "geometry": { "type": "Polygon", "coordinates": [ [ [ 74.695175653077072, 36.62 ], [ 74.696604603833592, 36.62273796319252 ], [ 74.694459933531363, 36.625137505548793 ], [ 74.689770075698007, 36.626012354275694 ], [ 74.687119048027142, 36.627588032544324 ], [ 74.683029139871707, 36.626956863941167 ], [ 74.68, 36.625137171329897 ], [ 74.677904332025349, 36.624813008835204 ], [ 74.67410869606509, 36.626279407838823 ], [ 74.666408127548536, 36.628364229200905 ], [ 74.662980466691678, 36.626046912084334 ], [ 74.663235153929705, 36.622764385825086 ], [ 74.670063158860813, 36.62 ], [ 74.671594177072294, 36.618613948636799 ], [ 74.670260578133707, 36.616539656716149 ], [ 74.670652634979533, 36.614247775372014 ], [ 74.673492191250034, 36.613063473599453 ], [ 74.675935441986866, 36.610665146452099 ], [ 74.68, 36.60820288972684 ], [ 74.685017072854762, 36.608477556431239 ], [ 74.687396368960663, 36.612116377334537 ], [ 74.686321640266343, 36.6161097598361 ], [ 74.68510340962321, 36.618186796972466 ], [ 74.691559104240383, 36.618093998371421 ], [ 74.695175653077072, 36.62 ] ] ] } },
{ "type": "Feature", "properties": { "lake_id": "GLK_003", "area_sqkm": 3.974, "year": "2022", "status": "Survived" }, "geometry": { "type": "Polygon", "coordinates": [ [ [ 74.571002469674269, 36.51 ], [ 74.574383100925431, 36.514020573662727 ], [ 74.569346228435236, 36.5168735693507 ], [ 74.565444268831911, 36.519504165435023 ], [ 74.559452412692977, 36.520075113254364 ], [ 74.554101179421707, 36.519418959983241 ], [ 74.55, 36.518171891847636 ], [ 74.547777888122965, 36.515103405800112 ], [ 74.542603590067458, 36.517883666336473 ], [ 74.532063790655002, 36.521037667289228 ], [ 74.527349482014557, 36.518047558557647 ], [ 74.529450359985148, 36.513388467351831 ], [ 74.534868778114017, 36.51 ], [ 74.537963658907415, 36.508015305922719 ], [ 74.538494713331502, 36.505912258242972 ], [ 74.539312428801267, 36.503423033108476 ], [ 74.54192966105721, 36.501398007948801 ], [ 74.545458510137465, 36.499569802517513 ], [ 74.55, 36.495374372717109 ], [ 74.55718414110963, 36.493500566381606 ], [ 74.559587888639939, 36.499780485992801 ], [ 74.557246141949278, 36.505540835723515 ], [ 74.557202451067965, 36.507441023345898 ], [ 74.565242581900165, 36.507486623070328 ], [ 74.571002469674269, 36.51 ] ] ] } },
{ "type": "Feature", "properties": { "lake_id": "GLK_004", "area_sqkm": 1.031, "year": "2022", "status": "Survived" }, "geometry": { "type": "Polygon", "coordinates": [ [ [ 74.732099917163765, 36.66 ], [ 74.73227989286454, 36.662024853769964 ], [ 74.731043448884634, 36.663923654268501 ], [ 74.727548542539665, 36.664645256947487 ], [ 74.725382466107476, 36.665737049088101 ], [ 74.722631478509456, 36.666043576305434 ], [ 74.72, 36.6638078183056 ], [ 74.718385313780189, 36.663708363698845 ], [ 74.714826856039025, 36.665513937338631 ], [ 74.709789093863805, 36.666283634545344 ], [ 74.706428378789738, 36.664821894867124 ], [ 74.708290575301689, 36.661930788241072 ], [ 74.71224407886524, 36.66 ], [ 74.713251015498983, 36.658887147725054 ], [ 74.71253444731461, 36.6573475453215 ], [ 74.713990696716749, 36.656301967210304 ], [ 74.71505036902785, 36.654724300109244 ], [ 74.717230295513232, 36.653638967466719 ], [ 74.72, 36.650942743213555 ], [ 74.723867192009678, 36.65111842642294 ], [ 74.725899841489436, 36.65371149217458 ], [ 74.724885639531706, 36.656993452595863 ], [ 74.724201306589563, 36.658507307390501 ], [ 74.727957058553372, 36.658687946207074 ], [ 74.732099917163765, 36.66 ] ] ] } },
{ "type": "Feature", "properties": { "lake_id": "GLK_005", "area_sqkm": 1.61, "year": "2022", "status": "Survived" }, "geometry": { "type": "Polygon", "coordinates": [ [ [ 74.51543573485786, 36.48 ], [ 74.514584422263397, 36.482404851795415 ], [ 74.512397034964266, 36.484404573214626 ], [ 74.510028593265204, 36.486171442009358 ], [ 74.506603728796904, 36.487038765412699 ], [ 74.503349520627239, 36.487692665330371 ], [ 74.5, 36.484472297500261 ], [ 74.498263333657363, 36.483988508939404 ], [ 74.494263843371542, 36.486114039828102 ], [ 74.487748091868127, 36.487539635773459 ], [ 74.484219562495753, 36.485606670671388 ], [ 74.486246485490383, 36.482267841911344 ], [ 74.489635549146016, 36.48 ], [ 74.492145047255306, 36.478704782618749 ], [ 74.49128489141826, 36.476903587516496 ], [ 74.492899833679616, 36.475630666879766 ], [ 74.494596822574309, 36.474240875185473 ], [ 74.496724299355833, 36.472476873086499 ], [ 74.5, 36.469701766047223 ], [ 74.504375376840997, 36.469951305432083 ], [ 74.50719162366714, 36.472334610719749 ], [ 74.505804290882821, 36.476428128687495 ], [ 74.505300433926962, 36.478116795720268 ], [ 74.510225575048239, 36.478313886414568 ], [ 74.51543573485786, 36.48 ] ] ] } },
{ "type": "Feature", "properties": { "lake_id": "GLK_006", "area_sqkm": 0.789, "year": "2022", "status": "Survived" }, "geometry": { "type": "Polygon", "coordinates": [ [ [ 74.662052418043373, 36.54 ], [ 74.661371402848189, 36.541875051206141 ], [ 74.660333449591121, 36.543671396863438 ], [ 74.657451623519151, 36.544585614473313 ], [ 74.655683621942131, 36.546058044292167 ], [ 74.652087351155899, 36.544793908041243 ], [ 74.65, 36.544308179896362 ], [ 74.648556779485659, 36.543314567560657 ], [ 74.645898692078958, 36.544371491505679 ], [ 74.6408564479446, 36.545626801264866 ], [ 74.638023676655976, 36.544255097542504 ], [ 74.63901880961852, 36.541810708365936 ], [ 74.641651124771656, 36.54 ], [ 74.643637021301814, 36.538950796920837 ], [ 74.643248306778545, 36.537601174216064 ], [ 74.64346182086399, 36.535976505147069 ], [ 74.645552652717114, 36.535259672952073 ], [ 74.647606204668435, 36.53450229796902 ], [ 74.65, 36.532637830415077 ], [ 74.653661414981272, 36.531591023546035 ], [ 74.655442453854263, 36.534199011327125 ], [ 74.653497257383805, 36.537847841609967 ], [ 74.653878336462824, 36.53862205624565 ], [ 74.65715825085293, 36.538819663055222 ], [ 74.662052418043373, 36.54 ] ] ] } },
{ "type": "Feature", "properties": { "lake_id": "GLK_007", "area_sqkm": 1.15, "year": "2022", "status": "Newly Formed" }, "geometry": { "type": "Polygon", "coordinates": [ [ [ 74.613701117140977, 36.64 ], [ 74.612931536660383, 36.642132304495412 ], [ 74.61022667816556, 36.643633461779572 ], [ 74.608260009251964, 36.645083082616594 ], [ 74.605484442442787, 36.645845743361292 ], [ 74.602581937831403, 36.645929798873091 ], [ 74.6, 36.643835882071585 ], [ 74.598360912169795, 36.643764405575602 ], [ 74.595403711558518, 36.64489908006577 ], [ 74.588593193192679, 36.64701957341989 ], [ 74.584797882520348, 36.645401197919462 ], [ 74.587362393428791, 36.642083837830782 ], [ 74.591721139745985, 36.64 ], [ 74.593419977639726, 36.638915008198396 ], [ 74.5929578733911, 36.6374979854195 ], [ 74.592517598799574, 36.635395445415128 ], [ 74.594786585232072, 36.634443138917561 ], [ 74.597087155161262, 36.633310224656803 ], [ 74.6, 36.631512128606673 ], [ 74.604305265007412, 36.630112327539869 ], [ 74.606038604279576, 36.633563588049832 ], [ 74.605105234215344, 36.636858317405945 ], [ 74.605165842529189, 36.638164615030881 ], [ 74.607782638698737, 36.638716706612733 ], [ 74.613701117140977, 36.64 ] ] ] } },
{ "type": "Feature", "properties": { "lake_id": "GLK_008", "area_sqkm": 0.65, "year": "2022", "status": "Newly Formed" }, "geometry": { "type": "Polygon", "coordinates": [ [ [ 74.761258949747358, 36.7 ], [ 74.760851781531244, 36.701789369906301 ], [ 74.758873636238562, 36.703152736166786 ], [ 74.756708650119464, 36.704128400073515 ], [ 74.754947912922461, 36.705273868660392 ], [ 74.752266998772797, 36.705206495138938 ], [ 74.75, 36.703202555293927 ], [ 74.748762993911484, 36.702840965890218 ], [ 74.746175450786708, 36.704076500648284 ], [ 74.740976433620077, 36.705552963926102 ], [ 74.7376068937524, 36.704403177371169 ], [ 74.739122382961156, 36.701793629969934 ], [ 74.743061216146231, 36.7 ], [ 74.744747429125226, 36.699133894077491 ], [ 74.744314968041706, 36.697980150934477 ], [ 74.743854698339476, 36.696218275901217 ], [ 74.745966724105145, 36.695701022294877 ], [ 74.747589796609049, 36.694464614454397 ], [ 74.75, 36.692893944896653 ], [ 74.753302303874392, 36.69241577486693 ], [ 74.75504332335862, 36.694624435510079 ], [ 74.754441599308251, 36.697266708118001 ], [ 74.754394944896447, 36.698438509157519 ], [ 74.756946514877185, 36.698854576583663 ], [ 74.761258949747358, 36.7 ] ] ] } },
{ "type": "Feature", "properties": { "lake_id": "GLK_009", "area_sqkm": 0.85, "year": "2022", "status": "Newly Formed" }, "geometry": { "type": "Polygon", "coordinates": [ [ [ 74.531872321055616, 36.56 ], [ 74.531522249030886, 36.561899924506349 ], [ 74.530306277176862, 36.563661742709179 ], [ 74.527298864917555, 36.564491609180038 ], [ 74.525806470677466, 36.566188985985256 ], [ 74.522392476960533, 36.565494674198554 ], [ 74.52, 36.563783457524394 ], [ 74.518807237659018, 36.562739353635614 ], [ 74.515318233394552, 36.564990189310649 ], [ 74.510212164796243, 36.566023283202313 ], [ 74.507326327224035, 36.564502860546966 ], [ 74.508032216795982, 36.561973389442898 ], [ 74.512629685755215, 36.56 ], [ 74.512988098735661, 36.558843794903886 ], [ 74.513839545309906, 36.557811236816214 ], [ 74.514246217153655, 36.556459210556099 ], [ 74.51588384131405, 36.555612679399346 ], [ 74.517233828782281, 36.553647082137282 ], [ 74.52, 36.551976981490007 ], [ 74.523521364468394, 36.551912670087376 ], [ 74.525312987591832, 36.554337006492901 ], [ 74.524626390290024, 36.557152990590751 ], [ 74.524099065848318, 36.55854363275634 ], [ 74.527052866209573, 36.55883704011989 ], [ 74.531872321055616, 36.56 ] ] ] } },
{ "type": "Feature", "properties": { "lake_id": "GLK_010", "area_sqkm": 0.5, "year": "2022", "status": "Newly Formed" }, "geometry": { "type": "Polygon", "coordinates": [ [ [ 74.700465065380172, 36.5 ], [ 74.699755994354931, 36.501608683574624 ], [ 74.698403436166203, 36.50298567762011 ], [ 74.696264855296505, 36.503855295567078 ], [ 74.694677849692894, 36.504986014362018 ], [ 74.691777529515903, 36.504082357209434 ], [ 74.69, 36.503103764720791 ], [ 74.688653065637553, 36.503093432292374 ], [ 74.686383697379554, 36.50385453530717 ], [ 74.681476815509441, 36.505245036609573 ], [ 74.678778284597897, 36.503986991020412 ], [ 74.6798648502932, 36.501671203187144 ], [ 74.682820655174609, 36.5 ], [ 74.684814661673727, 36.499144980174151 ], [ 74.683727878978559, 36.497771562609159 ], [ 74.685304901688156, 36.497110708731178 ], [ 74.686116297679945, 36.495860449390896 ], [ 74.687890322760651, 36.495154816833967 ], [ 74.69, 36.493661442676753 ], [ 74.693212334042855, 36.49262240377918 ], [ 74.694728091900231, 36.494960433603659 ], [ 74.693527765259461, 36.497829067532642 ], [ 74.693876001214775, 36.498622885941707 ], [ 74.696427523493142, 36.498940154012722 ], [ 74.700465065380172, 36.5 ] ] ] } },
{ "type": "Feature", "properties": { "lake_id": "GLK_011", "area_sqkm": 0.9, "year": "2022", "status": "Newly Formed" }, "geometry": { "type": "Polygon", "coordinates": [ [ [ 74.591719987650464, 36.46 ], [ 74.592305387272788, 36.462029057589106 ], [ 74.590435297922667, 36.463707582809064 ], [ 74.5874400760528, 36.464578508340189 ], [ 74.585332351331246, 36.465683632879703 ], [ 74.582543033644541, 36.465840449702654 ], [ 74.58, 36.463753187600901 ], [ 74.578329759162216, 36.463835953026134 ], [ 74.575420729044552, 36.464880941511673 ], [ 74.570295446103117, 36.465972033167319 ], [ 74.566298606609479, 36.464868001946023 ], [ 74.568631815033967, 36.461874520603729 ], [ 74.571660409433079, 36.46 ], [ 74.572346396959475, 36.458737983536068 ], [ 74.572608634892404, 36.457373903609508 ], [ 74.573226327270874, 36.455831586012842 ], [ 74.575128743317961, 36.45480783749538 ], [ 74.577460759950412, 36.454168262844512 ], [ 74.58, 36.451718912213096 ], [ 74.583547048714394, 36.451853682449816 ], [ 74.585437173795754, 36.454204639222255 ], [ 74.584366877986497, 36.457312690469848 ], [ 74.583612520135389, 36.458716498786082 ], [ 74.58799622777228, 36.458681487523648 ], [ 74.591719987650464, 36.46 ] ] ] } },
{ "type": "Feature", "properties": { "lake_id": "GLK_012", "area_sqkm": 1.3, "year": "2022", "status": "Newly Formed" }, "geometry": { "type": "Polygon", "coordinates": [ [ [ 74.793317380901073, 36.6 ], [ 74.794269362889693, 36.602352901084799 ], [ 74.792278115558389, 36.604362322044786 ], [ 74.78857279510936, 36.605275566221145 ], [ 74.786128246692869, 36.606531959774379 ], [ 74.782987363452364, 36.606860918267614 ], [ 74.78, 36.604918080730158 ], [ 74.778055946285917, 36.604464804451432 ], [ 74.775178266574855, 36.60513937678332 ], [ 74.76943908798421, 36.606499022778955 ], [ 74.764130083958236, 36.6056384617223 ], [ 74.766865331408525, 36.602165799287349 ], [ 74.770026573168963, 36.6 ], [ 74.771468890003888, 36.598593289825232 ], [ 74.771336890862528, 36.596922062527668 ], [ 74.772123124501874, 36.595152692001157 ], [ 74.774702584287681, 36.594353604207669 ], [ 74.776752486881662, 36.592541609873308 ], [ 74.78, 36.590385150023039 ], [ 74.784051728484144, 36.59069461134689 ], [ 74.786208659922622, 36.593382329579768 ], [ 74.784940616642103, 36.59695962052794 ], [ 74.78455777719708, 36.598380656066688 ], [ 74.789868780158585, 36.598372718969991 ], [ 74.793317380901073, 36.6 ] ] ] } }
]
}
