{
"type": "FeatureCollection",
"name": "lakes_2016",
"crs": { "type": "name", "properties": { "name": "urn:ogc:def:crs:OGC:1.3:CRS84" } },
"features": [
{ "type": "Feature", "properties": { "lake_id": "GLK_001", "area_sqkm": 2.45, "year": "2016", "status": "Survived" }, "geometry": { "type": "Polygon", "coordinates": [ [ [ 74.638574311134107, 36.58 ], [ 74.637213852086944, 36.582838423240197 ], [ 74.635435094948718, 36.585483973060683 ], [ 74.632103235234538, 36.587448144759719 ], [ 74.628142701181233, 36.588679121327225 ], [ 74.623413740379902, 36.587840155410227 ], [ 74.62, 36.585373250462915 ], [ 74.617656476848708, 36.585382244596509 ], [ 74.613825992463489, 36.586580735224345 ], [ 74.606318187856928, 36.58841957670343 ], [ 74.599989586417379, 36.587109549334478 ], [ 74.601598879140894, 36.583034194137859 ], [ 74.609622054269153, 36.58 ], [ 74.609941377892554, 36.578341415587282 ], [ 74.608640601270153, 36.575964091129528 ], [ 74.610403510949737, 36.574094468276755 ], [ 74.613007585056323, 36.572546942799967 ], [ 74.61611857613299, 36.571085740875432 ], [ 74.62, 36.566935744796268 ], [ 74.625686344501858, 36.566940475944456 ], [ 74.628207915798143, 36.571251367885161 ], [ 74.625649636617609, 36.576523300543009 ], [ 74.62578997352125, 36.577942865987019 ], [ 74.632002807699877, 36.578020835304557 ], [ 74.638574311134107, 36.58 ] ] ] } },
{ "type": "Feature", "properties": { "lake_id": "GLK_002", "area_sqkm": 1.8, "year": "2016", "status": "Survived" }, "geometry": { "type": "Polygon", "coordinates": [ [ [ 74.695908039986747, 36.62 ], [ 74.697399863611054, 36.622869095017222 ], [ 74.694200774581518, 36.625045428324512 ], [ 74.69080162163722, 36.626647151776737 ], [ 74.686579288086477, 36.627012714611318 ], [ 74.683327482612086, 36.62764205179667 ], [ 74.68, 36.625030841222788 ], [ 74.678096161080305, 36.624372445278617 ], [ 74.673914480438128, 36.626486417890227 ], [ 74.667734628190914, 36.627547921113283 ], [ 74.66328099952581, 36.625940135030376 ], [ 74.664358670875629, 36.622579127081494 ], [ 74.66880868448645, 36.62 ], [ 74.670272611295331, 36.61839603326284 ], [ 74.670063040920397, 36.616469473231049 ], [ 74.672597730746759, 36.615444757382619 ], [ 74.674621622736822, 36.614267309118695 ], [ 74.676265025881762, 36.611422084200463 ], [ 74.68, 36.609565498332714 ], [ 74.684705696186711, 36.609192678613063 ], [ 74.687652869511339, 36.611842979189333 ], [ 74.686476418250351, 36.616014511845933 ], [ 74.685534261419875, 36.618033718571979 ], [ 74.689338933828111, 36.618460086290824 ], [ 74.695908039986747, 36.62 ] ] ] } },
{ "type": "Feature", "properties": { "lake_id": "GLK_003", "area_sqkm": 3.2, "year": "2016", "status": "Survived" }, "geometry": { "type": "Polygon", "coordinates": [ [ [ 74.570340880456243, 36.51 ], [ 74.570392425738021, 36.513362544005055 ], [ 74.567337265938079, 36.516159800096226 ], [ 74.562158884629028, 36.517482390540941 ], [ 74.559869942981749, 36.520520149361353 ], [ 74.553920216374578, 36.519003351807136 ], [ 74.55, 36.517623070070094 ], [ 74.547830717844718, 36.514982074596588 ], [ 74.542409270846505, 36.518090786806354 ], [ 74.533961557859612, 36.519869810547924 ], [ 74.529207228766538, 36.517387515119282 ], [ 74.530740398127406, 36.513175750626644 ], [ 74.536697373809204, 36.51 ], [ 74.537942353617936, 36.508011792854958 ], [ 74.536955166393852, 36.505365268803665 ], [ 74.540497182533059, 36.504152112328036 ], [ 74.543054712910376, 36.502597175315458 ], [ 74.545059657907601, 36.498653779879639 ], [ 74.55, 36.496787740431586 ], [ 74.555948549386898, 36.496338283973394 ], [ 74.559317885077306, 36.500068276693547 ], [ 74.557702705110131, 36.505259873778371 ], [ 74.557375030969368, 36.507379707005875 ], [ 74.561360248711026, 36.50812678801973 ], [ 74.570340880456243, 36.51 ] ] ] } },
{ "type": "Feature", "properties": { "lake_id": "GLK_004", "area_sqkm": 0.95, "year": "2016", "status": "Survived" }, "geometry": { "type": "Polygon", "coordinates": [ [ [ 74.732054634895121, 36.66 ], [ 74.731927574815117, 36.661966759408841 ], [ 74.730907594354576, 36.663875386176507 ], [ 74.727672557116804, 36.664721573610336 ], [ 74.725560719962317, 36.665927045847006 ], [ 74.722393652844758, 36.665497374789133 ], [ 74.72, 36.664114149513829 ], [ 74.718457651498099, 36.663542229521269 ], [ 74.715126495035605, 36.665194558898008 ], [ 74.709711336963124, 36.666331484945765 ], [ 74.705691653920681, 36.665083647668027 ], [ 74.708017608598695, 36.661975798214996 ], [ 74.711197347589703, 36.66 ], [ 74.712682986354423, 36.658793484370868 ], [ 74.713561374741786, 36.657712404907045 ], [ 74.712967633333164, 36.655672389743486 ], [ 74.715459984758425, 36.655160900267347 ], [ 74.717417261925917, 36.654068363252236 ], [ 74.72, 36.651103043429821 ], [ 74.723646992897983, 36.651624145975298 ], [ 74.725278980061944, 36.654373254351107 ], [ 74.724335196053786, 36.657332187043821 ], [ 74.724512829110466, 36.658396625783546 ], [ 74.728827550581272, 36.658544409200367 ], [ 74.732054634895121, 36.66 ] ] ] } },
{ "type": "Feature", "properties": { "lake_id": "GLK_005", "area_sqkm": 1.4, "year": "2016", "status": "Survived" }, "geometry": { "type": "Polygon", "coordinates": [ [ [ 74.514182129835788, 36.48 ], [ 74.514223882156045, 36.48234540168427 ], [ 74.511554426562128, 36.484105200791369 ], [ 74.509078179016328, 36.485586571702349 ], [ 74.506360871446745, 36.48677990924687 ], [ 74.503199402692331, 36.487347897477932 ], [ 74.5, 36.484597979252825 ], [ 74.498121081611529, 36.484315211624029 ], [ 74.494368720943484, 36.486002253192297 ], [ 74.48870040847757, 36.486953594783031 ], [ 74.484710264215408, 36.485432328043736 ], [ 74.486676388389682, 36.482196954443843 ], [ 74.491375492930487, 36.48 ], [ 74.490913096212509, 36.478501643980579 ], [ 74.490728502036447, 36.476705906556887 ], [ 74.492422454147061, 36.47533689485973 ], [ 74.494897417072679, 36.474561272073871 ], [ 74.49653445437778, 36.472040866253479 ], [ 74.5, 36.469918601888445 ], [ 74.504344062848446, 36.470023222608191 ], [ 74.506514494614748, 36.473056347287141 ], [ 74.505151750003193, 36.476829692305721 ], [ 74.505761337225067, 36.477953040247513 ], [ 74.509352779174179, 36.47845780330664 ], [ 74.514182129835788, 36.48 ] ] ] } },
{ "type": "Feature", "properties": { "lake_id": "GLK_006", "area_sqkm": 0.75, "year": "2016", "status": "Survived" }, "geometry": { "type": "Polygon", "coordinates": [ [ [ 74.660853431853639, 36.54 ], [ 74.661174571930275, 36.541842595399679 ], [ 74.659247496464261, 36.543285565891054 ], [ 74.657535893596389, 36.544637472982394 ], [ 74.655207900154153, 36.545550983180142 ], [ 74.652240501820089, 36.54514564100122 ], [ 74.65, 36.543603159476163 ], [ 74.648882728496602, 36.542565977856334 ], [ 74.646098623751996, 36.544158388849844 ], [ 74.641310642141605, 36.545347297143636 ], [ 74.637347746932491, 36.54449525028577 ], [ 74.638518453357264, 36.541893213015868 ], [ 74.642820231811626, 36.54 ], [ 74.642777874095771, 36.538809130582351 ], [ 74.643927695205036, 36.537842555810471 ], [ 74.644086205859082, 36.536360742067124 ], [ 74.645989867309353, 36.535725690113651 ], [ 74.647582575877237, 36.534448030984855 ], [ 74.65, 36.53222575411764 ], [ 74.653554119146918, 36.531837444164665 ], [ 74.655272174733625, 36.534380507996914 ], [ 74.653487272572292, 36.537853986109361 ], [ 74.653994783022327, 36.538580683659511 ], [ 74.657880631944991, 36.538700548328919 ], [ 74.660853431853639, 36.54 ] ] ] } },
{ "type": "Feature", "properties": { "lake_id": "GLK_013", "area_sqkm": 1.6, "year": "2016", "status": "Drained" }, "geometry": { "type": "Polygon", "coordinates": [ [ [ 74.655950019778373, 36.49 ], [ 74.655797858498573, 36.492604937493439 ], [ 74.653725180011747, 36.494876453153516 ], [ 74.649658785875829, 36.495943868231286 ], [ 74.646941890659292, 36.497399204506152 ], [ 74.643296443112959, 36.497570765034979 ], [ 74.64, 36.4947480127909 ], [ 74.637892617880297, 36.494839912087187 ], [ 74.634746426243055, 36.495599665642054 ], [ 74.627149470860317, 36.497908017932112 ], [ 74.62294104925715, 36.496060916802143 ], [ 74.625434473146072, 36.492401736097136 ], [ 74.630826458251533, 36.49 ], [ 74.632636567523562, 36.488785830285799 ], [ 74.631077055371946, 36.486829744933559 ], [ 74.632358523868334, 36.485297553149742 ], [ 74.634986436438936, 36.484656155806313 ], [ 74.636399473835837, 36.481730863643904 ], [ 74.64, 36.478940247000246 ], [ 74.644790010853995, 36.478999037614813 ], [ 74.647194798519934, 36.482331226715843 ], [ 74.644629802770694, 36.487150890602649 ], [ 74.644330215556451, 36.488461507004821 ], [ 74.650420019375062, 36.488281824137438 ], [ 74.655950019778373, 36.49 ] ] ] } },
{ "type": "Feature", "properties": { "lake_id": "GLK_014", "area_sqkm": 0.8, "year": "2016", "status": "Drained" }, "geometry": { "type": "Polygon", "coordinates": [ [ [ 74.581138743944791, 36.68 ], [ 74.581931463535, 36.68196740062691 ], [ 74.5793732648267, 36.683330250443625 ], [ 74.576960231895654, 36.684283219628099 ], [ 74.575619668459709, 36.685989877719337 ], [ 74.572408304773603, 36.685531025092445 ], [ 74.57, 36.683656783995765 ], [ 74.568828036468375, 36.682691586119766 ], [ 74.565569560509829, 36.68472230541343 ], [ 74.560461203911203, 36.685870028362331 ], [ 74.558043658974555, 36.684247997975113 ], [ 74.559759138461956, 36.681688634202409 ], [ 74.562842246713089, 36.68 ], [ 74.564007434337412, 36.679011874996995 ], [ 74.56271763122831, 36.67741262918728 ], [ 74.564566076377787, 36.676656047001721 ], [ 74.565829712091954, 36.675554984283742 ], [ 74.567402102921974, 36.674033548376613 ], [ 74.57, 36.671728728702533 ], [ 74.573751036609764, 36.671385194333098 ], [ 74.575532956789431, 36.674102546292069 ], [ 74.573766863868116, 36.67768192992731 ], [ 74.574386216868461, 36.678441610160164 ], [ 74.577331294068287, 36.678791129646108 ], [ 74.581138743944791, 36.68 ] ] ] } },
{ "type": "Feature", "properties": { "lake_id": "GLK_015", "area_sqkm": 1.1, "year": "2016", "status": "Drained" }, "geometry": { "type": "Polygon", "coordinates": [ [ [ 74.723541469330485, 36.55 ], [ 74.723804995054309, 36.552276330631578 ], [ 74.721555191204601, 36.554105472463085 ], [ 74.718834378811337, 36.55543654080698 ], [ 74.715755362579884, 36.556134511018065 ], [ 74.71277508889456, 36.556373398615399 ], [ 74.71, 36.554885901335567 ], [ 74.708207108851951, 36.554117637450425 ], [ 74.705497186451282, 36.554799447288225 ], [ 74.699221706783504, 36.556632795825536 ], [ 74.694967881709047, 36.555340798487236 ], [ 74.697810039967294, 36.552010024582479 ], [ 74.701281553139808, 36.55 ], [ 74.703190755534877, 36.548877211350465 ], [ 74.70248105929349, 36.54732857695943 ], [ 74.70323368053964, 36.545836111101323 ], [ 74.705319476595363, 36.545011135789018 ], [ 74.706912404090545, 36.542908883195501 ], [ 74.71, 36.541036993626562 ], [ 74.713850498316134, 36.541156765938275 ], [ 74.715802036140047, 36.543815740688053 ], [ 74.714856482959021, 36.547011395102139 ], [ 74.714936306029088, 36.54824616762172 ], [ 74.718910519836456, 36.548530728249645 ], [ 74.723541469330485, 36.55 ] ] ] } },
{ "type": "Feature", "properties": { "lake_id": "GLK_016", "area_sqkm": 0.95, "year": "2016", "status": "Drained" }, "geometry": { "type": "Polygon", "coordinates": [ [ [ 74.492866083389004, 36.53 ], [ 74.492098227195896, 36.53199489858892 ], [ 74.490775744213281, 36.533828540813694 ], [ 74.487836957010927, 36.534822742775958 ], [ 74.485596022916212, 36.535964674468424 ], [ 74.482625969985591, 36.536030925172525 ], [ 74.48, 36.534675853417326 ], [ 74.478439486912862, 36.533583947155144 ], [ 74.475871136750584, 36.534400862108008 ], [ 74.469996045166624, 36.536156279897469 ], [ 74.466305523411762, 36.534865544458235 ], [ 74.468697274894325, 36.531863726808822 ], [ 74.472198489644143, 36.53 ], [ 74.472129550117927, 36.528702227267708 ], [ 74.472343240922484, 36.527279611129522 ], [ 74.473295990152792, 36.525874455478636 ], [ 74.475561579679734, 36.525269187999967 ], [ 74.477314282799014, 36.523831856585318 ], [ 74.48, 36.521639612415569 ], [ 74.483610566087691, 36.521707805487182 ], [ 74.486038891127208, 36.523563282305417 ], [ 74.483980122501023, 36.527550693845527 ], [ 74.484353907342566, 36.528453089491535 ], [ 74.488239282290877, 36.528641409823969 ], [ 74.492866083389004, 36.53 ] ] ] } }
]
}
