{
"type": "FeatureCollection",
"name": "lake_change_classified",
"crs": { "type": "name", "properties": { "name": "urn:ogc:def:crs:OGC:1.3:CRS84" } },
"features": [
{ "type": "Feature", "properties": { "lake_id": "SURV_002", "status": "Survived", "status_code": 2, "color": "#2ECC71", "area_2016_sqkm": 2.5983, "area_2022_sqkm": 3.7378, "area_change_sqkm": 1.1395, "area_change_pct": 43.86, "match_iou": 0.695, "centroid_lon": 74.65332, "centroid_lat": 36.640454 }, "geometry": { "type": "Polygon", "coordinates": [ [ [ 74.653125, 36.65087890625 ], [ 74.653125, 36.650537109375001 ], [ 74.650390625, 36.650537109375001 ], [ 74.650390625, 36.650195312500003 ], [ 74.64921875, 36.650195312500003 ], [ 74.64921875, 36.649853515624997 ], [ 74.648046875, 36.649853515624997 ], [ 74.648046875, 36.649511718749999 ], [ 74.64765625, 36.649511718749999 ], [ 74.64765625, 36.649169921875 ], [ 74.646875, 36.649169921875 ], [ 74.646875, 36.648828125 ], [ 74.64609375, 36.648828125 ], [ 74.64609375, 36.648486328125003 ], [ 74.645703125, 36.648486328125003 ], [ 74.645703125, 36.648144531249997 ], [ 74.6453125, 36.648144531249997 ], [ 74.6453125, 36.647802734374999 ], [ 74.644921875, 36.647802734374999 ], [ 74.644921875, 36.6474609375 ], [ 74.64453125, 36.6474609375 ], [ 74.64453125, 36.647119140625001 ], [ 74.644140625, 36.647119140625001 ], [ 74.644140625, 36.646777343750003 ], [ 74.64375, 36.646777343750003 ], [ 74.64375, 36.64609375 ], [ 74.643359375, 36.64609375 ], [ 74.643359375, 36.645410156250001 ], [ 74.64296875, 36.645410156250001 ], [ 74.64296875, 36.645068359375003 ], [ 74.642578125, 36.645068359375003 ], [ 74.642578125, 36.64404296875 ], [ 74.6421875, 36.64404296875 ], [ 74.6421875, 36.643017578124997 ], [ 74.641796875, 36.643017578124997 ], [ 74.641796875, 36.640625 ], [ 74.64140625, 36.640625 ], [ 74.64140625, 36.640283203125001 ], [ 74.641796875, 36.640283203125001 ], [ 74.641796875, 36.637890625 ], [ 74.6421875, 36.637890625 ], [ 74.6421875, 36.636865234375001 ], [ 74.642578125, 36.636865234375001 ], [ 74.642578125, 36.635839843749999 ], [ 74.64296875, 36.635839843749999 ], [ 74.64296875, 36.635498046875 ], [ 74.643359375, 36.635498046875 ], [ 74.643359375, 36.634814453125003 ], [ 74.64375, 36.634814453125003 ], [ 74.64375, 36.634130859374999 ], [ 74.644140625, 36.634130859374999 ], [ 74.644140625, 36.6337890625 ], [ 74.64453125, 36.6337890625 ], [ 74.64453125, 36.633447265625001 ], [ 74.644921875, 36.633447265625001 ], [ 74.644921875, 36.633105468750003 ], [ 74.6453125, 36.633105468750003 ], [ 74.6453125, 36.632763671874997 ], [ 74.645703125, 36.632763671874997 ], [ 74.645703125, 36.632421875 ], [ 74.64609375, 36.632421875 ], [ 74.64609375, 36.632080078125 ], [ 74.646875, 36.632080078125 ], [ 74.646875, 36.631738281250001 ], [ 74.64765625, 36.631738281250001 ], [ 74.64765625, 36.631396484375003 ], [ 74.648046875, 36.631396484375003 ], [ 74.648046875, 36.631054687499997 ], [ 74.64921875, 36.631054687499997 ], [ 74.64921875, 36.630712890624999 ], [ 74.650390625, 36.630712890624999 ], [ 74.650390625, 36.63037109375 ], [ 74.653125, 36.63037109375 ], [ 74.653125, 36.630029296875001 ], [ 74.653515625, 36.630029296875001 ], [ 74.653515625, 36.63037109375 ], [ 74.65625, 36.63037109375 ], [ 74.65625, 36.630712890624999 ], [ 74.657421875, 36.630712890624999 ], [ 74.657421875, 36.631054687499997 ], [ 74.65859375, 36.631054687499997 ], [ 74.65859375, 36.631396484375003 ], [ 74.658984375, 36.631396484375003 ], [ 74.658984375, 36.631738281250001 ], [ 74.659765625, 36.631738281250001 ], [ 74.659765625, 36.632080078125 ], [ 74.660546875, 36.632080078125 ], [ 74.660546875, 36.632421875 ], [ 74.6609375, 36.632421875 ], [ 74.6609375, 36.632763671874997 ], [ 74.661328125, 36.632763671874997 ], [ 74.661328125, 36.633105468750003 ], [ 74.66171875, 36.633105468750003 ], [ 74.66171875, 36.633447265625001 ], [ 74.662109375, 36.633447265625001 ], [ 74.662109375, 36.6337890625 ], [ 74.6625, 36.6337890625 ], [ 74.6625, 36.634130859374999 ], [ 74.662890625, 36.634130859374999 ], [ 74.662890625, 36.634814453125003 ], [ 74.66328125, 36.634814453125003 ], [ 74.66328125, 36.635498046875 ], [ 74.663671875, 36.635498046875 ], [ 74.663671875, 36.635839843749999 ], [ 74.6640625, 36.635839843749999 ], [ 74.6640625, 36.636865234375001 ], [ 74.664453125, 36.636865234375001 ], [ 74.664453125, 36.637890625 ], [ 74.66484375, 36.637890625 ], [ 74.66484375, 36.640283203125001 ], [ 74.665234375, 36.640283203125001 ], [ 74.665234375, 36.640625 ], [ 74.66484375, 36.640625 ], [ 74.66484375, 36.643017578124997 ], [ 74.664453125, 36.643017578124997 ], [ 74.664453125, 36.64404296875 ], [ 74.6640625, 36.64404296875 ], [ 74.6640625, 36.645068359375003 ], [ 74.663671875, 36.645068359375003 ], [ 74.663671875, 36.645410156250001 ], [ 74.66328125, 36.645410156250001 ], [ 74.66328125, 36.64609375 ], [ 74.662890625, 36.64609375 ], [ 74.662890625, 36.646777343750003 ], [ 74.6625, 36.646777343750003 ], [ 74.6625, 36.647119140625001 ], [ 74.662109375, 36.647119140625001 ], [ 74.662109375, 36.6474609375 ], [ 74.66171875, 36.6474609375 ], [ 74.66171875, 36.647802734374999 ], [ 74.661328125, 36.647802734374999 ], [ 74.661328125, 36.648144531249997 ], [ 74.6609375, 36.648144531249997 ], [ 74.6609375, 36.648486328125003 ], [ 74.660546875, 36.648486328125003 ], [ 74.660546875, 36.648828125 ], [ 74.659765625, 36.648828125 ], [ 74.659765625, 36.649169921875 ], [ 74.658984375, 36.649169921875 ], [ 74.658984375, 36.649511718749999 ], [ 74.65859375, 36.649511718749999 ], [ 74.65859375, 36.649853515624997 ], [ 74.657421875, 36.649853515624997 ], [ 74.657421875, 36.650195312500003 ], [ 74.65625, 36.650195312500003 ], [ 74.65625, 36.650537109375001 ], [ 74.653515625, 36.650537109375001 ], [ 74.653515625, 36.65087890625 ], [ 74.653125, 36.65087890625 ] ] ] } },
{ "type": "Feature", "properties": { "lake_id": "SURV_004", "status": "Survived", "status_code": 2, "color": "#2ECC71", "area_2016_sqkm": 8.4313, "area_2022_sqkm": 17.5929, "area_change_sqkm": 9.1616, "area_change_pct": 108.66, "match_iou": 0.479, "centroid_lon": 74.586914, "centroid_lat": 36.61311 }, "geometry": { "type": "Polygon", "coordinates": [ [ [ 74.58671875, 36.635498046875 ], [ 74.58671875, 36.63515625 ], [ 74.582421875, 36.63515625 ], [ 74.582421875, 36.634814453125003 ], [ 74.58046875, 36.634814453125003 ], [ 74.58046875, 36.634472656249997 ], [ 74.579296875, 36.634472656249997 ], [ 74.579296875, 36.634130859374999 ], [ 74.578125, 36.634130859374999 ], [ 74.578125, 36.6337890625 ], [ 74.576953125, 36.6337890625 ], [ 74.576953125, 36.633447265625001 ], [ 74.576171875, 36.633447265625001 ], [ 74.576171875, 36.633105468750003 ], [ 74.575390625, 36.633105468750003 ], [ 74.575390625, 36.632763671874997 ], [ 74.574609375, 36.632763671874997 ], [ 74.574609375, 36.632421875 ], [ 74.573828125, 36.632421875 ], [ 74.573828125, 36.632080078125 ], [ 74.5734375, 36.632080078125 ], [ 74.5734375, 36.631738281250001 ], [ 74.57265625, 36.631738281250001 ], [ 74.57265625, 36.631396484375003 ], [ 74.572265625, 36.631396484375003 ], [ 74.572265625, 36.631054687499997 ], [ 74.571484375, 36.631054687499997 ], [ 74.571484375, 36.630712890624999 ], [ 74.57109375, 36.630712890624999 ], [ 74.57109375, 36.63037109375 ], [ 74.570703125, 36.63037109375 ], [ 74.570703125, 36.630029296875001 ], [ 74.5703125, 36.630029296875001 ], [ 74.5703125, 36.6296875 ], [ 74.569921875, 36.6296875 ], [ 74.569921875, 36.629345703124997 ], [ 74.56953125, 36.629345703124997 ], [ 74.56953125, 36.629003906249999 ], [ 74.569140625, 36.629003906249999 ], [ 74.569140625, 36.628662109375 ], [ 74.56875, 36.628662109375 ], [ 74.56875, 36.628320312500001 ], [ 74.568359375, 36.628320312500001 ], [ 74.568359375, 36.627978515625003 ], [ 74.56796875, 36.627978515625003 ], [ 74.56796875, 36.627636718749997 ], [ 74.567578125, 36.627636718749997 ], [ 74.567578125, 36.627294921874999 ], [ 74.5671875, 36.627294921874999 ], [ 74.5671875, 36.626953125 ], [ 74.566796875, 36.626953125 ], [ 74.566796875, 36.626611328125001 ], [ 74.56640625, 36.626611328125001 ], [ 74.56640625, 36.625927734374997 ], [ 74.566015625, 36.625927734374997 ], [ 74.566015625, 36.625585937499999 ], [ 74.565625, 36.625585937499999 ], [ 74.565625, 36.624902343750001 ], [ 74.565234375, 36.624902343750001 ], [ 74.565234375, 36.624560546875003 ], [ 74.56484375, 36.624560546875003 ], [ 74.56484375, 36.623876953124999 ], [ 74.564453125, 36.623876953124999 ], [ 74.564453125, 36.623193359375001 ], [ 74.5640625, 36.623193359375001 ], [ 74.5640625, 36.622509765624997 ], [ 74.563671875, 36.622509765624997 ], [ 74.563671875, 36.621826171875 ], [ 74.56328125, 36.621826171875 ], [ 74.56328125, 36.620800781249997 ], [ 74.562890625, 36.620800781249997 ], [ 74.562890625, 36.619775390625001 ], [ 74.5625, 36.619775390625001 ], [ 74.5625, 36.61875 ], [ 74.562109375, 36.61875 ], [ 74.562109375, 36.617041015624999 ], [ 74.56171875, 36.617041015624999 ], [ 74.56171875, 36.61328125 ], [ 74.561328125, 36.61328125 ], [ 74.561328125, 36.612939453125001 ], [ 74.56171875, 36.612939453125001 ], [ 74.56171875, 36.609179687500003 ], [ 74.562109375, 36.609179687500003 ], [ 74.562109375, 36.607470703125003 ], [ 74.5625, 36.607470703125003 ], [ 74.5625, 36.6064453125 ], [ 74.562890625, 36.6064453125 ], [ 74.562890625, 36.605419921874997 ], [ 74.56328125, 36.605419921874997 ], [ 74.56328125, 36.604394531250001 ], [ 74.563671875, 36.604394531250001 ], [ 74.563671875, 36.603710937499997 ], [ 74.5640625, 36.603710937499997 ], [ 74.5640625, 36.60302734375 ], [ 74.564453125, 36.60302734375 ], [ 74.564453125, 36.60234375 ], [ 74.56484375, 36.60234375 ], [ 74.56484375, 36.601660156249999 ], [ 74.565234375, 36.601660156249999 ], [ 74.565234375, 36.601318359375 ], [ 74.565625, 36.601318359375 ], [ 74.565625, 36.600634765625003 ], [ 74.566015625, 36.600634765625003 ], [ 74.566015625, 36.600292968749997 ], [ 74.56640625, 36.600292968749997 ], [ 74.56640625, 36.599609375 ], [ 74.566796875, 36.599609375 ], [ 74.566796875, 36.599267578125001 ], [ 74.5671875, 36.599267578125001 ], [ 74.5671875, 36.598925781250003 ], [ 74.567578125, 36.598925781250003 ], [ 74.567578125, 36.598583984374997 ], [ 74.56796875, 36.598583984374997 ], [ 74.56796875, 36.598242187499999 ], [ 74.568359375, 36.598242187499999 ], [ 74.568359375, 36.597900390625 ], [ 74.56875, 36.597900390625 ], [ 74.56875, 36.597558593750001 ], [ 74.569140625, 36.597558593750001 ], [ 74.569140625, 36.597216796875003 ], [ 74.56953125, 36.597216796875003 ], [ 74.56953125, 36.596875 ], [ 74.569921875, 36.596875 ], [ 74.569921875, 36.596533203124999 ], [ 74.5703125, 36.596533203124999 ], [ 74.5703125, 36.59619140625 ], [ 74.570703125, 36.59619140625 ], [ 74.570703125, 36.595849609375001 ], [ 74.57109375, 36.595849609375001 ], [ 74.57109375, 36.595507812500003 ], [ 74.571484375, 36.595507812500003 ], [ 74.571484375, 36.595166015624997 ], [ 74.572265625, 36.595166015624997 ], [ 74.572265625, 36.594824218749999 ], [ 74.57265625, 36.594824218749999 ], [ 74.57265625, 36.594482421875 ], [ 74.5734375, 36.594482421875 ], [ 74.5734375, 36.594140625 ], [ 74.573828125, 36.594140625 ], [ 74.573828125, 36.593798828125003 ], [ 74.574609375, 36.593798828125003 ], [ 74.574609375, 36.593457031249997 ], [ 74.575390625, 36.593457031249997 ], [ 74.575390625, 36.593115234374999 ], [ 74.576171875, 36.593115234374999 ], [ 74.576171875, 36.5927734375 ], [ 74.576953125, 36.5927734375 ], [ 74.576953125, 36.592431640625001 ], [ 74.578125, 36.592431640625001 ], [ 74.578125, 36.592089843750003 ], [ 74.579296875, 36.592089843750003 ], [ 74.579296875, 36.591748046874997 ], [ 74.58046875, 36.591748046874997 ], [ 74.58046875, 36.59140625 ], [ 74.582421875, 36.59140625 ], [ 74.582421875, 36.591064453125 ], [ 74.58671875, 36.591064453125 ], [ 74.58671875, 36.590722656250001 ], [ 74.587109375, 36.590722656250001 ], [ 74.587109375, 36.591064453125 ], [ 74.59140625, 36.591064453125 ], [ 74.59140625, 36.59140625 ], [ 74.593359375, 36.59140625 ], [ 74.593359375, 36.591748046874997 ], [ 74.59453125, 36.591748046874997 ], [ 74.59453125, 36.592089843750003 ], [ 74.595703125, 36.592089843750003 ], [ 74.595703125, 36.592431640625001 ], [ 74.596875, 36.592431640625001 ], [ 74.596875, 36.5927734375 ], [ 74.59765625, 36.5927734375 ], [ 74.59765625, 36.593115234374999 ], [ 74.5984375, 36.593115234374999 ], [ 74.5984375, 36.593457031249997 ], [ 74.59921875, 36.593457031249997 ], [ 74.59921875, 36.593798828125003 ], [ 74.6, 36.593798828125003 ], [ 74.6, 36.594140625 ], [ 74.600390625, 36.594140625 ], [ 74.600390625, 36.594482421875 ], [ 74.601171875, 36.594482421875 ], [ 74.601171875, 36.594824218749999 ], [ 74.6015625, 36.594824218749999 ], [ 74.6015625, 36.595166015624997 ], [ 74.60234375, 36.595166015624997 ], [ 74.60234375, 36.595507812500003 ], [ 74.602734375, 36.595507812500003 ], [ 74.602734375, 36.595849609375001 ], [ 74.603125, 36.595849609375001 ], [ 74.603125, 36.59619140625 ], [ 74.603515625, 36.59619140625 ], [ 74.603515625, 36.596533203124999 ], [ 74.60390625, 36.596533203124999 ], [ 74.60390625, 36.596875 ], [ 74.604296875, 36.596875 ], [ 74.604296875, 36.597216796875003 ], [ 74.6046875, 36.597216796875003 ], [ 74.6046875, 36.597558593750001 ], [ 74.605078125, 36.597558593750001 ], [ 74.605078125, 36.597900390625 ], [ 74.60546875, 36.597900390625 ], [ 74.60546875, 36.598242187499999 ], [ 74.605859375, 36.598242187499999 ], [ 74.605859375, 36.598583984374997 ], [ 74.60625, 36.598583984374997 ], [ 74.60625, 36.598925781250003 ], [ 74.606640625, 36.598925781250003 ], [ 74.606640625, 36.599267578125001 ], [ 74.60703125, 36.599267578125001 ], [ 74.60703125, 36.599609375 ], [ 74.607421875, 36.599609375 ], [ 74.607421875, 36.600292968749997 ], [ 74.6078125, 36.600292968749997 ], [ 74.6078125, 36.600634765625003 ], [ 74.608203125, 36.600634765625003 ], [ 74.608203125, 36.601318359375 ], [ 74.60859375, 36.601318359375 ], [ 74.60859375, 36.601660156249999 ], [ 74.608984375, 36.601660156249999 ], [ 74.608984375, 36.60234375 ], [ 74.609375, 36.60234375 ], [ 74.609375, 36.60302734375 ], [ 74.609765625, 36.60302734375 ], [ 74.609765625, 36.603710937499997 ], [ 74.61015625, 36.603710937499997 ], [ 74.61015625, 36.604394531250001 ], [ 74.610546875, 36.604394531250001 ], [ 74.610546875, 36.605419921874997 ], [ 74.6109375, 36.605419921874997 ], [ 74.6109375, 36.6064453125 ], [ 74.611328125, 36.6064453125 ], [ 74.611328125, 36.607470703125003 ], [ 74.61171875, 36.607470703125003 ], [ 74.61171875, 36.609179687500003 ], [ 74.612109375, 36.609179687500003 ], [ 74.612109375, 36.612939453125001 ], [ 74.6125, 36.612939453125001 ], [ 74.6125, 36.61328125 ], [ 74.612109375, 36.61328125 ], [ 74.612109375, 36.617041015624999 ], [ 74.61171875, 36.617041015624999 ], [ 74.61171875, 36.61875 ], [ 74.611328125, 36.61875 ], [ 74.611328125, 36.619775390625001 ], [ 74.6109375, 36.619775390625001 ], [ 74.6109375, 36.620800781249997 ], [ 74.610546875, 36.620800781249997 ], [ 74.610546875, 36.621826171875 ], [ 74.61015625, 36.621826171875 ], [ 74.61015625, 36.622509765624997 ], [ 74.609765625, 36.622509765624997 ], [ 74.609765625, 36.623193359375001 ], [ 74.609375, 36.623193359375001 ], [ 74.609375, 36.623876953124999 ], [ 74.608984375, 36.623876953124999 ], [ 74.608984375, 36.624560546875003 ], [ 74.60859375, 36.624560546875003 ], [ 74.60859375, 36.624902343750001 ], [ 74.608203125, 36.624902343750001 ], [ 74.608203125, 36.625585937499999 ], [ 74.6078125, 36.625585937499999 ], [ 74.6078125, 36.625927734374997 ], [ 74.607421875, 36.625927734374997 ], [ 74.607421875, 36.626611328125001 ], [ 74.60703125, 36.626611328125001 ], [ 74.60703125, 36.626953125 ], [ 74.606640625, 36.626953125 ], [ 74.606640625, 36.627294921874999 ], [ 74.60625, 36.627294921874999 ], [ 74.60625, 36.627636718749997 ], [ 74.605859375, 36.627636718749997 ], [ 74.605859375, 36.627978515625003 ], [ 74.60546875, 36.627978515625003 ], [ 74.60546875, 36.628320312500001 ], [ 74.605078125, 36.628320312500001 ], [ 74.605078125, 36.628662109375 ], [ 74.6046875, 36.628662109375 ], [ 74.6046875, 36.629003906249999 ], [ 74.604296875, 36.629003906249999 ], [ 74.604296875, 36.629345703124997 ], [ 74.60390625, 36.629345703124997 ], [ 74.60390625, 36.6296875 ], [ 74.603515625, 36.6296875 ], [ 74.603515625, 36.630029296875001 ], [ 74.603125, 36.630029296875001 ], [ 74.603125, 36.63037109375 ], [ 74.602734375, 36.63037109375 ], [ 74.602734375, 36.630712890624999 ], [ 74.60234375, 36.630712890624999 ], [ 74.60234375, 36.631054687499997 ], [ 74.6015625, 36.631054687499997 ], [ 74.6015625, 36.631396484375003 ], [ 74.601171875, 36.631396484375003 ], [ 74.601171875, 36.631738281250001 ], [ 74.600390625, 36.631738281250001 ], [ 74.600390625, 36.632080078125 ], [ 74.6, 36.632080078125 ], [ 74.6, 36.632421875 ], [ 74.59921875, 36.632421875 ], [ 74.59921875, 36.632763671874997 ], [ 74.5984375, 36.632763671874997 ], [ 74.5984375, 36.633105468750003 ], [ 74.59765625, 36.633105468750003 ], [ 74.59765625, 36.633447265625001 ], [ 74.596875, 36.633447265625001 ], [ 74.596875, 36.6337890625 ], [ 74.595703125, 36.6337890625 ], [ 74.595703125, 36.634130859374999 ], [ 74.59453125, 36.634130859374999 ], [ 74.59453125, 36.634472656249997 ], [ 74.593359375, 36.634472656249997 ], [ 74.593359375, 36.634814453125003 ], [ 74.59140625, 36.634814453125003 ], [ 74.59140625, 36.63515625 ], [ 74.587109375, 36.63515625 ], [ 74.587109375, 36.635498046875 ], [ 74.58671875, 36.635498046875 ] ] ] } },
{ "type": "Feature", "properties": { "lake_id": "SURV_006", "status": "Survived", "status_code": 2, "color": "#2ECC71", "area_2016_sqkm": 5.1126, "area_2022_sqkm": 5.9883, "area_change_sqkm": 0.8757, "area_change_pct": 17.13, "match_iou": 0.854, "centroid_lon": 74.731445, "centroid_lat": 36.527661 }, "geometry": { "type": "Polygon", "coordinates": [ [ [ 74.73125, 36.540820312499996 ], [ 74.73125, 36.540478515624997 ], [ 74.728125, 36.540478515624997 ], [ 74.728125, 36.540136718749999 ], [ 74.7265625, 36.540136718749999 ], [ 74.7265625, 36.539794921875 ], [ 74.72578125, 36.539794921875 ], [ 74.72578125, 36.539453125 ], [ 74.725, 36.539453125 ], [ 74.725, 36.539111328124996 ], [ 74.72421875, 36.539111328124996 ], [ 74.72421875, 36.538769531249997 ], [ 74.7234375, 36.538769531249997 ], [ 74.7234375, 36.538427734374999 ], [ 74.723046875, 36.538427734374999 ], [ 74.723046875, 36.5380859375 ], [ 74.722265625, 36.5380859375 ], [ 74.722265625, 36.537744140625001 ], [ 74.721875, 36.537744140625001 ], [ 74.721875, 36.537402343749996 ], [ 74.721484375, 36.537402343749996 ], [ 74.721484375, 36.537060546874997 ], [ 74.72109375, 36.537060546874997 ], [ 74.72109375, 36.53671875 ], [ 74.720703125, 36.53671875 ], [ 74.720703125, 36.536376953125 ], [ 74.7203125, 36.536376953125 ], [ 74.7203125, 36.536035156250001 ], [ 74.719921875, 36.536035156250001 ], [ 74.719921875, 36.535693359374996 ], [ 74.71953125, 36.535693359374996 ], [ 74.71953125, 36.535009765624999 ], [ 74.719140625, 36.535009765624999 ], [ 74.719140625, 36.53466796875 ], [ 74.71875, 36.53466796875 ], [ 74.71875, 36.533984375 ], [ 74.718359375, 36.533984375 ], [ 74.718359375, 36.533300781249999 ], [ 74.71796875, 36.533300781249999 ], [ 74.71796875, 36.532617187500001 ], [ 74.717578125, 36.532617187500001 ], [ 74.717578125, 36.531933593749997 ], [ 74.7171875, 36.531933593749997 ], [ 74.7171875, 36.530566406249996 ], [ 74.716796875, 36.530566406249996 ], [ 74.716796875, 36.52783203125 ], [ 74.71640625, 36.52783203125 ], [ 74.71640625, 36.527490234375001 ], [ 74.716796875, 36.527490234375001 ], [ 74.716796875, 36.524755859374999 ], [ 74.7171875, 36.524755859374999 ], [ 74.7171875, 36.523388671874997 ], [ 74.717578125, 36.523388671874997 ], [ 74.717578125, 36.522705078125 ], [ 74.71796875, 36.522705078125 ], [ 74.71796875, 36.522021484374996 ], [ 74.718359375, 36.522021484374996 ], [ 74.718359375, 36.521337890624999 ], [ 74.71875, 36.521337890624999 ], [ 74.71875, 36.520654296875001 ], [ 74.719140625, 36.520654296875001 ], [ 74.719140625, 36.5203125 ], [ 74.71953125, 36.5203125 ], [ 74.71953125, 36.519628906249999 ], [ 74.719921875, 36.519628906249999 ], [ 74.719921875, 36.519287109375 ], [ 74.7203125, 36.519287109375 ], [ 74.7203125, 36.518945312500001 ], [ 74.720703125, 36.518945312500001 ], [ 74.720703125, 36.518603515624996 ], [ 74.72109375, 36.518603515624996 ], [ 74.72109375, 36.518261718749997 ], [ 74.721484375, 36.518261718749997 ], [ 74.721484375, 36.517919921874999 ], [ 74.721875, 36.517919921874999 ], [ 74.721875, 36.517578125 ], [ 74.722265625, 36.517578125 ], [ 74.722265625, 36.517236328125001 ], [ 74.723046875, 36.517236328125001 ], [ 74.723046875, 36.516894531249996 ], [ 74.7234375, 36.516894531249996 ], [ 74.7234375, 36.516552734374997 ], [ 74.72421875, 36.516552734374997 ], [ 74.72421875, 36.516210937499999 ], [ 74.725, 36.516210937499999 ], [ 74.725, 36.515869140625 ], [ 74.72578125, 36.515869140625 ], [ 74.72578125, 36.515527343750001 ], [ 74.7265625, 36.515527343750001 ], [ 74.7265625, 36.515185546874996 ], [ 74.728125, 36.515185546874996 ], [ 74.728125, 36.51484375 ], [ 74.73125, 36.51484375 ], [ 74.73125, 36.514501953124999 ], [ 74.731640625, 36.514501953124999 ], [ 74.731640625, 36.51484375 ], [ 74.734765625, 36.51484375 ], [ 74.734765625, 36.515185546874996 ], [ 74.736328125, 36.515185546874996 ], [ 74.736328125, 36.515527343750001 ], [ 74.737109375, 36.515527343750001 ], [ 74.737109375, 36.515869140625 ], [ 74.737890625, 36.515869140625 ], [ 74.737890625, 36.516210937499999 ], [ 74.738671875, 36.516210937499999 ], [ 74.738671875, 36.516552734374997 ], [ 74.739453125, 36.516552734374997 ], [ 74.739453125, 36.516894531249996 ], [ 74.73984375, 36.516894531249996 ], [ 74.73984375, 36.517236328125001 ], [ 74.740625, 36.517236328125001 ], [ 74.740625, 36.517578125 ], [ 74.741015625, 36.517578125 ], [ 74.741015625, 36.517919921874999 ], [ 74.74140625, 36.517919921874999 ], [ 74.74140625, 36.518261718749997 ], [ 74.741796875, 36.518261718749997 ], [ 74.741796875, 36.518603515624996 ], [ 74.7421875, 36.518603515624996 ], [ 74.7421875, 36.518945312500001 ], [ 74.742578125, 36.518945312500001 ], [ 74.742578125, 36.519287109375 ], [ 74.74296875, 36.519287109375 ], [ 74.74296875, 36.519628906249999 ], [ 74.743359375, 36.519628906249999 ], [ 74.743359375, 36.5203125 ], [ 74.74375, 36.5203125 ], [ 74.74375, 36.520654296875001 ], [ 74.744140625, 36.520654296875001 ], [ 74.744140625, 36.521337890624999 ], [ 74.74453125, 36.521337890624999 ], [ 74.74453125, 36.522021484374996 ], [ 74.744921875, 36.522021484374996 ], [ 74.744921875, 36.522705078125 ], [ 74.7453125, 36.522705078125 ], [ 74.7453125, 36.523388671874997 ], [ 74.745703125, 36.523388671874997 ], [ 74.745703125, 36.524755859374999 ], [ 74.74609375, 36.524755859374999 ], [ 74.74609375, 36.527490234375001 ], [ 74.746484375, 36.527490234375001 ], [ 74.746484375, 36.52783203125 ], [ 74.74609375, 36.52783203125 ], [ 74.74609375, 36.530566406249996 ], [ 74.745703125, 36.530566406249996 ], [ 74.745703125, 36.531933593749997 ], [ 74.7453125, 36.531933593749997 ], [ 74.7453125, 36.532617187500001 ], [ 74.744921875, 36.532617187500001 ], [ 74.744921875, 36.533300781249999 ], [ 74.74453125, 36.533300781249999 ], [ 74.74453125, 36.533984375 ], [ 74.744140625, 36.533984375 ], [ 74.744140625, 36.53466796875 ], [ 74.74375, 36.53466796875 ], [ 74.74375, 36.535009765624999 ], [ 74.743359375, 36.535009765624999 ], [ 74.743359375, 36.535693359374996 ], [ 74.74296875, 36.535693359374996 ], [ 74.74296875, 36.536035156250001 ], [ 74.742578125, 36.536035156250001 ], [ 74.742578125, 36.536376953125 ], [ 74.7421875, 36.536376953125 ], [ 74.7421875, 36.53671875 ], [ 74.741796875, 36.53671875 ], [ 74.741796875, 36.537060546874997 ], [ 74.74140625, 36.537060546874997 ], [ 74.74140625, 36.537402343749996 ], [ 74.741015625, 36.537402343749996 ], [ 74.741015625, 36.537744140625001 ], [ 74.740625, 36.537744140625001 ], [ 74.740625, 36.5380859375 ], [ 74.73984375, 36.5380859375 ], [ 74.73984375, 36.538427734374999 ], [ 74.739453125, 36.538427734374999 ], [ 74.739453125, 36.538769531249997 ], [ 74.738671875, 36.538769531249997 ], [ 74.738671875, 36.539111328124996 ], [ 74.737890625, 36.539111328124996 ], [ 74.737890625, 36.539453125 ], [ 74.737109375, 36.539453125 ], [ 74.737109375, 36.539794921875 ], [ 74.736328125, 36.539794921875 ], [ 74.736328125, 36.540136718749999 ], [ 74.734765625, 36.540136718749999 ], [ 74.734765625, 36.540478515624997 ], [ 74.731640625, 36.540478515624997 ], [ 74.731640625, 36.540820312499996 ], [ 74.73125, 36.540820312499996 ] ] ] } },
{ "type": "Feature", "properties": { "lake_id": "NEW_001", "status": "Newly Formed", "status_code": 1, "color": "#F1C40F", "area_2016_sqkm": 0.0, "area_2022_sqkm": 4.2501, "area_change_sqkm": 4.2501, "area_change_pct": 100.0, "match_iou": 0.0, "centroid_lon": 74.637695, "centroid_lat": 36.674634 }, "geometry": { "type": "Polygon", "coordinates": [ [ [ 74.6375, 36.685742187499997 ], [ 74.6375, 36.685400390624999 ], [ 74.634765625, 36.685400390624999 ], [ 74.634765625, 36.68505859375 ], [ 74.633203125, 36.68505859375 ], [ 74.633203125, 36.684716796875001 ], [ 74.632421875, 36.684716796875001 ], [ 74.632421875, 36.684375 ], [ 74.631640625, 36.684375 ], [ 74.631640625, 36.684033203124997 ], [ 74.630859375, 36.684033203124997 ], [ 74.630859375, 36.683691406249999 ], [ 74.63046875, 36.683691406249999 ], [ 74.63046875, 36.683349609375 ], [ 74.630078125, 36.683349609375 ], [ 74.630078125, 36.683007812500001 ], [ 74.629296875, 36.683007812500001 ], [ 74.629296875, 36.682666015625003 ], [ 74.62890625, 36.682666015625003 ], [ 74.62890625, 36.682324218749997 ], [ 74.628515625, 36.682324218749997 ], [ 74.628515625, 36.681982421874999 ], [ 74.628125, 36.681982421874999 ], [ 74.628125, 36.681298828125001 ], [ 74.627734375, 36.681298828125001 ], [ 74.627734375, 36.680957031250003 ], [ 74.62734375, 36.680957031250003 ], [ 74.62734375, 36.680615234374997 ], [ 74.626953125, 36.680615234374997 ], [ 74.626953125, 36.679931640625 ], [ 74.6265625, 36.679931640625 ], [ 74.6265625, 36.679248046875003 ], [ 74.626171875, 36.679248046875003 ], [ 74.626171875, 36.678564453124999 ], [ 74.62578125, 36.678564453124999 ], [ 74.62578125, 36.677197265624997 ], [ 74.625390625, 36.677197265624997 ], [ 74.625390625, 36.6748046875 ], [ 74.625, 36.6748046875 ], [ 74.625, 36.674462890625001 ], [ 74.625390625, 36.674462890625001 ], [ 74.625390625, 36.672070312499997 ], [ 74.62578125, 36.672070312499997 ], [ 74.62578125, 36.670703125 ], [ 74.626171875, 36.670703125 ], [ 74.626171875, 36.670019531249999 ], [ 74.6265625, 36.670019531249999 ], [ 74.6265625, 36.669335937500001 ], [ 74.626953125, 36.669335937500001 ], [ 74.626953125, 36.668652343749997 ], [ 74.62734375, 36.668652343749997 ], [ 74.62734375, 36.668310546874999 ], [ 74.627734375, 36.668310546874999 ], [ 74.627734375, 36.66796875 ], [ 74.628125, 36.66796875 ], [ 74.628125, 36.667285156250003 ], [ 74.628515625, 36.667285156250003 ], [ 74.628515625, 36.666943359374997 ], [ 74.62890625, 36.666943359374997 ], [ 74.62890625, 36.666601562499999 ], [ 74.629296875, 36.666601562499999 ], [ 74.629296875, 36.666259765625 ], [ 74.630078125, 36.666259765625 ], [ 74.630078125, 36.665917968750001 ], [ 74.63046875, 36.665917968750001 ], [ 74.63046875, 36.665576171875003 ], [ 74.630859375, 36.665576171875003 ], [ 74.630859375, 36.665234375 ], [ 74.631640625, 36.665234375 ], [ 74.631640625, 36.664892578124999 ], [ 74.632421875, 36.664892578124999 ], [ 74.632421875, 36.66455078125 ], [ 74.633203125, 36.66455078125 ], [ 74.633203125, 36.664208984375001 ], [ 74.634765625, 36.664208984375001 ], [ 74.634765625, 36.663867187500003 ], [ 74.6375, 36.663867187500003 ], [ 74.6375, 36.663525390624997 ], [ 74.637890625, 36.663525390624997 ], [ 74.637890625, 36.663867187500003 ], [ 74.640625, 36.663867187500003 ], [ 74.640625, 36.664208984375001 ], [ 74.6421875, 36.664208984375001 ], [ 74.6421875, 36.66455078125 ], [ 74.64296875, 36.66455078125 ], [ 74.64296875, 36.664892578124999 ], [ 74.64375, 36.664892578124999 ], [ 74.64375, 36.665234375 ], [ 74.64453125, 36.665234375 ], [ 74.64453125, 36.665576171875003 ], [ 74.644921875, 36.665576171875003 ], [ 74.644921875, 36.665917968750001 ], [ 74.6453125, 36.665917968750001 ], [ 74.6453125, 36.666259765625 ], [ 74.64609375, 36.666259765625 ], [ 74.64609375, 36.666601562499999 ], [ 74.646484375, 36.666601562499999 ], [ 74.646484375, 36.666943359374997 ], [ 74.646875, 36.666943359374997 ], [ 74.646875, 36.667285156250003 ], [ 74.647265625, 36.667285156250003 ], [ 74.647265625, 36.66796875 ], [ 74.64765625, 36.66796875 ], [ 74.64765625, 36.668310546874999 ], [ 74.648046875, 36.668310546874999 ], [ 74.648046875, 36.668652343749997 ], [ 74.6484375, 36.668652343749997 ], [ 74.6484375, 36.669335937500001 ], [ 74.648828125, 36.669335937500001 ], [ 74.648828125, 36.670019531249999 ], [ 74.64921875, 36.670019531249999 ], [ 74.64921875, 36.670703125 ], [ 74.649609375, 36.670703125 ], [ 74.649609375, 36.672070312499997 ], [ 74.65, 36.672070312499997 ], [ 74.65, 36.674462890625001 ], [ 74.650390625, 36.674462890625001 ], [ 74.650390625, 36.6748046875 ], [ 74.65, 36.6748046875 ], [ 74.65, 36.677197265624997 ], [ 74.649609375, 36.677197265624997 ], [ 74.649609375, 36.678564453124999 ], [ 74.64921875, 36.678564453124999 ], [ 74.64921875, 36.679248046875003 ], [ 74.648828125, 36.679248046875003 ], [ 74.648828125, 36.679931640625 ], [ 74.6484375, 36.679931640625 ], [ 74.6484375, 36.680615234374997 ], [ 74.648046875, 36.680615234374997 ], [ 74.648046875, 36.680957031250003 ], [ 74.64765625, 36.680957031250003 ], [ 74.64765625, 36.681298828125001 ], [ 74.647265625, 36.681298828125001 ], [ 74.647265625, 36.681982421874999 ], [ 74.646875, 36.681982421874999 ], [ 74.646875, 36.682324218749997 ], [ 74.646484375, 36.682324218749997 ], [ 74.646484375, 36.682666015625003 ], [ 74.64609375, 36.682666015625003 ], [ 74.64609375, 36.683007812500001 ], [ 74.6453125, 36.683007812500001 ], [ 74.6453125, 36.683349609375 ], [ 74.644921875, 36.683349609375 ], [ 74.644921875, 36.683691406249999 ], [ 74.64453125, 36.683691406249999 ], [ 74.64453125, 36.684033203124997 ], [ 74.64375, 36.684033203124997 ], [ 74.64375, 36.684375 ], [ 74.64296875, 36.684375 ], [ 74.64296875, 36.684716796875001 ], [ 74.6421875, 36.684716796875001 ], [ 74.6421875, 36.68505859375 ], [ 74.640625, 36.68505859375 ], [ 74.640625, 36.685400390624999 ], [ 74.637890625, 36.685400390624999 ], [ 74.637890625, 36.685742187499997 ], [ 74.6375, 36.685742187499997 ] ] ] } },
{ "type": "Feature", "properties": { "lake_id": "NEW_003", "status": "Newly Formed", "status_code": 1, "color": "#F1C40F", "area_2016_sqkm": 0.0, "area_2022_sqkm": 5.1074, "area_change_sqkm": 5.1074, "area_change_pct": 100.0, "match_iou": 0.0, "centroid_lon": 74.762695, "centroid_lat": 36.606274 }, "geometry": { "type": "Polygon", "coordinates": [ [ [ 74.7625, 36.618408203125 ], [ 74.7625, 36.618066406250001 ], [ 74.759375, 36.618066406250001 ], [ 74.759375, 36.617724609375003 ], [ 74.758203125, 36.617724609375003 ], [ 74.758203125, 36.617382812499997 ], [ 74.75703125, 36.617382812499997 ], [ 74.75703125, 36.617041015624999 ], [ 74.75625, 36.617041015624999 ], [ 74.75625, 36.61669921875 ], [ 74.75546875, 36.61669921875 ], [ 74.75546875, 36.616357421875001 ], [ 74.755078125, 36.616357421875001 ], [ 74.755078125, 36.616015625 ], [ 74.754296875, 36.616015625 ], [ 74.754296875, 36.615673828124997 ], [ 74.75390625, 36.615673828124997 ], [ 74.75390625, 36.615332031249999 ], [ 74.753515625, 36.615332031249999 ], [ 74.753515625, 36.614990234375 ], [ 74.753125, 36.614990234375 ], [ 74.753125, 36.614648437500001 ], [ 74.752734375, 36.614648437500001 ], [ 74.752734375, 36.614306640625003 ], [ 74.75234375, 36.614306640625003 ], [ 74.75234375, 36.613964843749997 ], [ 74.751953125, 36.613964843749997 ], [ 74.751953125, 36.613623046874999 ], [ 74.7515625, 36.613623046874999 ], [ 74.7515625, 36.612939453125001 ], [ 74.751171875, 36.612939453125001 ], [ 74.751171875, 36.612597656250003 ], [ 74.75078125, 36.612597656250003 ], [ 74.75078125, 36.611914062499999 ], [ 74.750390625, 36.611914062499999 ], [ 74.750390625, 36.611230468750001 ], [ 74.75, 36.611230468750001 ], [ 74.75, 36.610205078124999 ], [ 74.749609375, 36.610205078124999 ], [ 74.749609375, 36.609179687500003 ], [ 74.74921875, 36.609179687500003 ], [ 74.74921875, 36.6064453125 ], [ 74.748828125, 36.6064453125 ], [ 74.748828125, 36.606103515625001 ], [ 74.74921875, 36.606103515625001 ], [ 74.74921875, 36.603369140624999 ], [ 74.749609375, 36.603369140624999 ], [ 74.749609375, 36.60234375 ], [ 74.75, 36.60234375 ], [ 74.75, 36.601318359375 ], [ 74.750390625, 36.601318359375 ], [ 74.750390625, 36.600634765625003 ], [ 74.75078125, 36.600634765625003 ], [ 74.75078125, 36.599951171874999 ], [ 74.751171875, 36.599951171874999 ], [ 74.751171875, 36.599609375 ], [ 74.7515625, 36.599609375 ], [ 74.7515625, 36.598925781250003 ], [ 74.751953125, 36.598925781250003 ], [ 74.751953125, 36.598583984374997 ], [ 74.75234375, 36.598583984374997 ], [ 74.75234375, 36.598242187499999 ], [ 74.752734375, 36.598242187499999 ], [ 74.752734375, 36.597900390625 ], [ 74.753125, 36.597900390625 ], [ 74.753125, 36.597558593750001 ], [ 74.753515625, 36.597558593750001 ], [ 74.753515625, 36.597216796875003 ], [ 74.75390625, 36.597216796875003 ], [ 74.75390625, 36.596875 ], [ 74.754296875, 36.596875 ], [ 74.754296875, 36.596533203124999 ], [ 74.755078125, 36.596533203124999 ], [ 74.755078125, 36.59619140625 ], [ 74.75546875, 36.59619140625 ], [ 74.75546875, 36.595849609375001 ], [ 74.75625, 36.595849609375001 ], [ 74.75625, 36.595507812500003 ], [ 74.75703125, 36.595507812500003 ], [ 74.75703125, 36.595166015624997 ], [ 74.758203125, 36.595166015624997 ], [ 74.758203125, 36.594824218749999 ], [ 74.759375, 36.594824218749999 ], [ 74.759375, 36.594482421875 ], [ 74.7625, 36.594482421875 ], [ 74.7625, 36.594140625 ], [ 74.762890625, 36.594140625 ], [ 74.762890625, 36.594482421875 ], [ 74.766015625, 36.594482421875 ], [ 74.766015625, 36.594824218749999 ], [ 74.7671875, 36.594824218749999 ], [ 74.7671875, 36.595166015624997 ], [ 74.768359375, 36.595166015624997 ], [ 74.768359375, 36.595507812500003 ], [ 74.769140625, 36.595507812500003 ], [ 74.769140625, 36.595849609375001 ], [ 74.769921875, 36.595849609375001 ], [ 74.769921875, 36.59619140625 ], [ 74.7703125, 36.59619140625 ], [ 74.7703125, 36.596533203124999 ], [ 74.77109375, 36.596533203124999 ], [ 74.77109375, 36.596875 ], [ 74.771484375, 36.596875 ], [ 74.771484375, 36.597216796875003 ], [ 74.771875, 36.597216796875003 ], [ 74.771875, 36.597558593750001 ], [ 74.772265625, 36.597558593750001 ], [ 74.772265625, 36.597900390625 ], [ 74.77265625, 36.597900390625 ], [ 74.77265625, 36.598242187499999 ], [ 74.773046875, 36.598242187499999 ], [ 74.773046875, 36.598583984374997 ], [ 74.7734375, 36.598583984374997 ], [ 74.7734375, 36.598925781250003 ], [ 74.773828125, 36.598925781250003 ], [ 74.773828125, 36.599609375 ], [ 74.77421875, 36.599609375 ], [ 74.77421875, 36.599951171874999 ], [ 74.774609375, 36.599951171874999 ], [ 74.774609375, 36.600634765625003 ], [ 74.775, 36.600634765625003 ], [ 74.775, 36.601318359375 ], [ 74.775390625, 36.601318359375 ], [ 74.775390625, 36.60234375 ], [ 74.77578125, 36.60234375 ], [ 74.77578125, 36.603369140624999 ], [ 74.776171875, 36.603369140624999 ], [ 74.776171875, 36.606103515625001 ], [ 74.7765625, 36.606103515625001 ], [ 74.7765625, 36.6064453125 ], [ 74.776171875, 36.6064453125 ], [ 74.776171875, 36.609179687500003 ], [ 74.77578125, 36.609179687500003 ], [ 74.77578125, 36.610205078124999 ], [ 74.775390625, 36.610205078124999 ], [ 74.775390625, 36.611230468750001 ], [ 74.775, 36.611230468750001 ], [ 74.775, 36.611914062499999 ], [ 74.774609375, 36.611914062499999 ], [ 74.774609375, 36.612597656250003 ], [ 74.77421875, 36.612597656250003 ], [ 74.77421875, 36.612939453125001 ], [ 74.773828125, 36.612939453125001 ], [ 74.773828125, 36.613623046874999 ], [ 74.7734375, 36.613623046874999 ], [ 74.7734375, 36.613964843749997 ], [ 74.773046875, 36.613964843749997 ], [ 74.773046875, 36.614306640625003 ], [ 74.77265625, 36.614306640625003 ], [ 74.77265625, 36.614648437500001 ], [ 74.772265625, 36.614648437500001 ], [ 74.772265625, 36.614990234375 ], [ 74.771875, 36.614990234375 ], [ 74.771875, 36.615332031249999 ], [ 74.771484375, 36.615332031249999 ], [ 74.771484375, 36.615673828124997 ], [ 74.77109375, 36.615673828124997 ], [ 74.77109375, 36.616015625 ], [ 74.7703125, 36.616015625 ], [ 74.7703125, 36.616357421875001 ], [ 74.769921875, 36.616357421875001 ], [ 74.769921875, 36.61669921875 ], [ 74.769140625, 36.61669921875 ], [ 74.769140625, 36.617041015624999 ], [ 74.768359375, 36.617041015624999 ], [ 74.768359375, 36.617382812499997 ], [ 74.7671875, 36.617382812499997 ], [ 74.7671875, 36.617724609375003 ], [ 74.766015625, 36.617724609375003 ], [ 74.766015625, 36.618066406250001 ], [ 74.762890625, 36.618066406250001 ], [ 74.762890625, 36.618408203125 ], [ 74.7625, 36.618408203125 ] ] ] } },
{ "type": "Feature", "properties": { "lake_id": "NEW_005", "status": "Newly Formed", "status_code": 1, "color": "#F1C40F", "area_2016_sqkm": 0.0, "area_2022_sqkm": 2.3786, "area_change_sqkm": 2.3786, "area_change_pct": 100.0, "match_iou": 0.0, "centroid_lon": 74.598633, "centroid_lat": 36.544751 }, "geometry": { "type": "Polygon", "coordinates": [ [ [ 74.5984375, 36.553125 ], [ 74.5984375, 36.552783203124996 ], [ 74.59609375, 36.552783203124996 ], [ 74.59609375, 36.552441406249997 ], [ 74.594921875, 36.552441406249997 ], [ 74.594921875, 36.552099609374999 ], [ 74.594140625, 36.552099609374999 ], [ 74.594140625, 36.5517578125 ], [ 74.593359375, 36.5517578125 ], [ 74.593359375, 36.551416015625001 ], [ 74.59296875, 36.551416015625001 ], [ 74.59296875, 36.551074218749996 ], [ 74.592578125, 36.551074218749996 ], [ 74.592578125, 36.550732421874997 ], [ 74.5921875, 36.550732421874997 ], [ 74.5921875, 36.550390625 ], [ 74.591796875, 36.550390625 ], [ 74.591796875, 36.550048828125 ], [ 74.59140625, 36.550048828125 ], [ 74.59140625, 36.549707031250001 ], [ 74.591015625, 36.549707031250001 ], [ 74.591015625, 36.549365234374996 ], [ 74.590625, 36.549365234374996 ], [ 74.590625, 36.548681640624999 ], [ 74.590234375, 36.548681640624999 ], [ 74.590234375, 36.547998046875001 ], [ 74.58984375, 36.547998046875001 ], [ 74.58984375, 36.546972656249999 ], [ 74.589453125, 36.546972656249999 ], [ 74.589453125, 36.544921875 ], [ 74.5890625, 36.544921875 ], [ 74.5890625, 36.544580078125001 ], [ 74.589453125, 36.544580078125001 ], [ 74.589453125, 36.542529296874996 ], [ 74.58984375, 36.542529296874996 ], [ 74.58984375, 36.54150390625 ], [ 74.590234375, 36.54150390625 ], [ 74.590234375, 36.540820312499996 ], [ 74.590625, 36.540820312499996 ], [ 74.590625, 36.540136718749999 ], [ 74.591015625, 36.540136718749999 ], [ 74.591015625, 36.539794921875 ], [ 74.59140625, 36.539794921875 ], [ 74.59140625, 36.539453125 ], [ 74.591796875, 36.539453125 ], [ 74.591796875, 36.539111328124996 ], [ 74.5921875, 36.539111328124996 ], [ 74.5921875, 36.538769531249997 ], [ 74.592578125, 36.538769531249997 ], [ 74.592578125, 36.538427734374999 ], [ 74.59296875, 36.538427734374999 ], [ 74.59296875, 36.5380859375 ], [ 74.593359375, 36.5380859375 ], [ 74.593359375, 36.537744140625001 ], [ 74.594140625, 36.537744140625001 ], [ 74.594140625, 36.537402343749996 ], [ 74.594921875, 36.537402343749996 ], [ 74.594921875, 36.537060546874997 ], [ 74.59609375, 36.537060546874997 ], [ 74.59609375, 36.53671875 ], [ 74.5984375, 36.53671875 ], [ 74.5984375, 36.536376953125 ], [ 74.598828125, 36.536376953125 ], [ 74.598828125, 36.53671875 ], [ 74.601171875, 36.53671875 ], [ 74.601171875, 36.537060546874997 ], [ 74.60234375, 36.537060546874997 ], [ 74.60234375, 36.537402343749996 ], [ 74.603125, 36.537402343749996 ], [ 74.603125, 36.537744140625001 ], [ 74.60390625, 36.537744140625001 ], [ 74.60390625, 36.5380859375 ], [ 74.604296875, 36.5380859375 ], [ 74.604296875, 36.538427734374999 ], [ 74.6046875, 36.538427734374999 ], [ 74.6046875, 36.538769531249997 ], [ 74.605078125, 36.538769531249997 ], [ 74.605078125, 36.539111328124996 ], [ 74.60546875, 36.539111328124996 ], [ 74.60546875, 36.539453125 ], [ 74.605859375, 36.539453125 ], [ 74.605859375, 36.539794921875 ], [ 74.60625, 36.539794921875 ], [ 74.60625, 36.540136718749999 ], [ 74.606640625, 36.540136718749999 ], [ 74.606640625, 36.540820312499996 ], [ 74.60703125, 36.540820312499996 ], [ 74.60703125, 36.54150390625 ], [ 74.607421875, 36.54150390625 ], [ 74.607421875, 36.542529296874996 ], [ 74.6078125, 36.542529296874996 ], [ 74.6078125, 36.544580078125001 ], [ 74.608203125, 36.544580078125001 ], [ 74.608203125, 36.544921875 ], [ 74.6078125, 36.544921875 ], [ 74.6078125, 36.546972656249999 ], [ 74.607421875, 36.546972656249999 ], [ 74.607421875, 36.547998046875001 ], [ 74.60703125, 36.547998046875001 ], [ 74.60703125, 36.548681640624999 ], [ 74.606640625, 36.548681640624999 ], [ 74.606640625, 36.549365234374996 ], [ 74.60625, 36.549365234374996 ], [ 74.60625, 36.549707031250001 ], [ 74.605859375, 36.549707031250001 ], [ 74.605859375, 36.550048828125 ], [ 74.60546875, 36.550048828125 ], [ 74.60546875, 36.550390625 ], [ 74.605078125, 36.550390625 ], [ 74.605078125, 36.550732421874997 ], [ 74.6046875, 36.550732421874997 ], [ 74.6046875, 36.551074218749996 ], [ 74.604296875, 36.551074218749996 ], [ 74.604296875, 36.551416015625001 ], [ 74.60390625, 36.551416015625001 ], [ 74.60390625, 36.5517578125 ], [ 74.603125, 36.5517578125 ], [ 74.603125, 36.552099609374999 ], [ 74.60234375, 36.552099609374999 ], [ 74.60234375, 36.552441406249997 ], [ 74.601171875, 36.552441406249997 ], [ 74.601171875, 36.552783203124996 ], [ 74.598828125, 36.552783203124996 ], [ 74.598828125, 36.553125 ], [ 74.5984375, 36.553125 ] ] ] } },
{ "type": "Feature", "properties": { "lake_id": "DRAIN_004", "status": "Drained", "status_code": 0, "color": "#E74C3C", "area_2016_sqkm": 6.6715, "area_2022_sqkm": 0.0, "area_change_sqkm": -6.6715, "area_change_pct": -100.0, "match_iou": 0.0, "centroid_lon": 74.551758, "centroid_lat": 36.483228 }, "geometry": { "type": "Polygon", "coordinates": [ [ [ 74.5515625, 36.4970703125 ], [ 74.5515625, 36.496728515625001 ], [ 74.5484375, 36.496728515625001 ], [ 74.5484375, 36.496386718749996 ], [ 74.546875, 36.496386718749996 ], [ 74.546875, 36.496044921874997 ], [ 74.545703125, 36.496044921874997 ], [ 74.545703125, 36.495703125 ], [ 74.544921875, 36.495703125 ], [ 74.544921875, 36.495361328125 ], [ 74.544140625, 36.495361328125 ], [ 74.544140625, 36.495019531250001 ], [ 74.543359375, 36.495019531250001 ], [ 74.543359375, 36.494677734374996 ], [ 74.54296875, 36.494677734374996 ], [ 74.54296875, 36.494335937499997 ], [ 74.5421875, 36.494335937499997 ], [ 74.5421875, 36.493994140624999 ], [ 74.541796875, 36.493994140624999 ], [ 74.541796875, 36.49365234375 ], [ 74.54140625, 36.49365234375 ], [ 74.54140625, 36.493310546875001 ], [ 74.541015625, 36.493310546875001 ], [ 74.541015625, 36.49296875 ], [ 74.540625, 36.49296875 ], [ 74.540625, 36.492626953124997 ], [ 74.540234375, 36.492626953124997 ], [ 74.540234375, 36.492285156249999 ], [ 74.53984375, 36.492285156249999 ], [ 74.53984375, 36.491943359375 ], [ 74.539453125, 36.491943359375 ], [ 74.539453125, 36.491601562500001 ], [ 74.5390625, 36.491601562500001 ], [ 74.5390625, 36.490917968749997 ], [ 74.538671875, 36.490917968749997 ], [ 74.538671875, 36.490576171874999 ], [ 74.53828125, 36.490576171874999 ], [ 74.53828125, 36.489892578125001 ], [ 74.537890625, 36.489892578125001 ], [ 74.537890625, 36.489208984374997 ], [ 74.5375, 36.489208984374997 ], [ 74.5375, 36.488525390625 ], [ 74.537109375, 36.488525390625 ], [ 74.537109375, 36.4875 ], [ 74.53671875, 36.4875 ], [ 74.53671875, 36.486132812499996 ], [ 74.536328125, 36.486132812499996 ], [ 74.536328125, 36.4833984375 ], [ 74.5359375, 36.4833984375 ], [ 74.5359375, 36.483056640625001 ], [ 74.536328125, 36.483056640625001 ], [ 74.536328125, 36.480322265624999 ], [ 74.53671875, 36.480322265624999 ], [ 74.53671875, 36.478955078124997 ], [ 74.537109375, 36.478955078124997 ], [ 74.537109375, 36.477929687500001 ], [ 74.5375, 36.477929687500001 ], [ 74.5375, 36.477246093749997 ], [ 74.537890625, 36.477246093749997 ], [ 74.537890625, 36.4765625 ], [ 74.53828125, 36.4765625 ], [ 74.53828125, 36.475878906249996 ], [ 74.538671875, 36.475878906249996 ], [ 74.538671875, 36.475537109374997 ], [ 74.5390625, 36.475537109374997 ], [ 74.5390625, 36.474853515625 ], [ 74.539453125, 36.474853515625 ], [ 74.539453125, 36.474511718750001 ], [ 74.53984375, 36.474511718750001 ], [ 74.53984375, 36.474169921874996 ], [ 74.540234375, 36.474169921874996 ], [ 74.540234375, 36.473828125 ], [ 74.540625, 36.473828125 ], [ 74.540625, 36.473486328124999 ], [ 74.541015625, 36.473486328124999 ], [ 74.541015625, 36.47314453125 ], [ 74.54140625, 36.47314453125 ], [ 74.54140625, 36.472802734375001 ], [ 74.541796875, 36.472802734375001 ], [ 74.541796875, 36.472460937499996 ], [ 74.5421875, 36.472460937499996 ], [ 74.5421875, 36.472119140624997 ], [ 74.54296875, 36.472119140624997 ], [ 74.54296875, 36.471777343749999 ], [ 74.543359375, 36.471777343749999 ], [ 74.543359375, 36.471435546875 ], [ 74.544140625, 36.471435546875 ], [ 74.544140625, 36.47109375 ], [ 74.544921875, 36.47109375 ], [ 74.544921875, 36.470751953124996 ], [ 74.545703125, 36.470751953124996 ], [ 74.545703125, 36.470410156249997 ], [ 74.546875, 36.470410156249997 ], [ 74.546875, 36.470068359374999 ], [ 74.5484375, 36.470068359374999 ], [ 74.5484375, 36.4697265625 ], [ 74.5515625, 36.4697265625 ], [ 74.5515625, 36.469384765625001 ], [ 74.551953125, 36.469384765625001 ], [ 74.551953125, 36.4697265625 ], [ 74.555078125, 36.4697265625 ], [ 74.555078125, 36.470068359374999 ], [ 74.556640625, 36.470068359374999 ], [ 74.556640625, 36.470410156249997 ], [ 74.5578125, 36.470410156249997 ], [ 74.5578125, 36.470751953124996 ], [ 74.55859375, 36.470751953124996 ], [ 74.55859375, 36.47109375 ], [ 74.559375, 36.47109375 ], [ 74.559375, 36.471435546875 ], [ 74.56015625, 36.471435546875 ], [ 74.56015625, 36.471777343749999 ], [ 74.560546875, 36.471777343749999 ], [ 74.560546875, 36.472119140624997 ], [ 74.561328125, 36.472119140624997 ], [ 74.561328125, 36.472460937499996 ], [ 74.56171875, 36.472460937499996 ], [ 74.56171875, 36.472802734375001 ], [ 74.562109375, 36.472802734375001 ], [ 74.562109375, 36.47314453125 ], [ 74.5625, 36.47314453125 ], [ 74.5625, 36.473486328124999 ], [ 74.562890625, 36.473486328124999 ], [ 74.562890625, 36.473828125 ], [ 74.56328125, 36.473828125 ], [ 74.56328125, 36.474169921874996 ], [ 74.563671875, 36.474169921874996 ], [ 74.563671875, 36.474511718750001 ], [ 74.5640625, 36.474511718750001 ], [ 74.5640625, 36.474853515625 ], [ 74.564453125, 36.474853515625 ], [ 74.564453125, 36.475537109374997 ], [ 74.56484375, 36.475537109374997 ], [ 74.56484375, 36.475878906249996 ], [ 74.565234375, 36.475878906249996 ], [ 74.565234375, 36.4765625 ], [ 74.565625, 36.4765625 ], [ 74.565625, 36.477246093749997 ], [ 74.566015625, 36.477246093749997 ], [ 74.566015625, 36.477929687500001 ], [ 74.56640625, 36.477929687500001 ], [ 74.56640625, 36.478955078124997 ], [ 74.566796875, 36.478955078124997 ], [ 74.566796875, 36.480322265624999 ], [ 74.5671875, 36.480322265624999 ], [ 74.5671875, 36.483056640625001 ], [ 74.567578125, 36.483056640625001 ], [ 74.567578125, 36.4833984375 ], [ 74.5671875, 36.4833984375 ], [ 74.5671875, 36.486132812499996 ], [ 74.566796875, 36.486132812499996 ], [ 74.566796875, 36.4875 ], [ 74.56640625, 36.4875 ], [ 74.56640625, 36.488525390625 ], [ 74.566015625, 36.488525390625 ], [ 74.566015625, 36.489208984374997 ], [ 74.565625, 36.489208984374997 ], [ 74.565625, 36.489892578125001 ], [ 74.565234375, 36.489892578125001 ], [ 74.565234375, 36.490576171874999 ], [ 74.56484375, 36.490576171874999 ], [ 74.56484375, 36.490917968749997 ], [ 74.564453125, 36.490917968749997 ], [ 74.564453125, 36.491601562500001 ], [ 74.5640625, 36.491601562500001 ], [ 74.5640625, 36.491943359375 ], [ 74.563671875, 36.491943359375 ], [ 74.563671875, 36.492285156249999 ], [ 74.56328125, 36.492285156249999 ], [ 74.56328125, 36.492626953124997 ], [ 74.562890625, 36.492626953124997 ], [ 74.562890625, 36.49296875 ], [ 74.5625, 36.49296875 ], [ 74.5625, 36.493310546875001 ], [ 74.562109375, 36.493310546875001 ], [ 74.562109375, 36.49365234375 ], [ 74.56171875, 36.49365234375 ], [ 74.56171875, 36.493994140624999 ], [ 74.561328125, 36.493994140624999 ], [ 74.561328125, 36.494335937499997 ], [ 74.560546875, 36.494335937499997 ], [ 74.560546875, 36.494677734374996 ], [ 74.56015625, 36.494677734374996 ], [ 74.56015625, 36.495019531250001 ], [ 74.559375, 36.495019531250001 ], [ 74.559375, 36.495361328125 ], [ 74.55859375, 36.495361328125 ], [ 74.55859375, 36.495703125 ], [ 74.5578125, 36.495703125 ], [ 74.5578125, 36.496044921874997 ], [ 74.556640625, 36.496044921874997 ], [ 74.556640625, 36.496386718749996 ], [ 74.555078125, 36.496386718749996 ], [ 74.555078125, 36.496728515625001 ], [ 74.551953125, 36.496728515625001 ], [ 74.551953125, 36.4970703125 ], [ 74.5515625, 36.4970703125 ] ] ] } },
{ "type": "Feature", "properties": { "lake_id": "DRAIN_005", "status": "Drained", "status_code": 0, "color": "#E74C3C", "area_2016_sqkm": 3.2577, "area_2022_sqkm": 0.0, "area_change_sqkm": -3.2577, "area_change_pct": -100.0, "match_iou": 0.0, "centroid_lon": 74.68457, "centroid_lat": 36.459302 }, "geometry": { "type": "Polygon", "coordinates": [ [ [ 74.684375, 36.469042968749996 ], [ 74.684375, 36.468701171874997 ], [ 74.681640625, 36.468701171874997 ], [ 74.681640625, 36.468359375 ], [ 74.68046875, 36.468359375 ], [ 74.68046875, 36.468017578125 ], [ 74.6796875, 36.468017578125 ], [ 74.6796875, 36.467675781250001 ], [ 74.67890625, 36.467675781250001 ], [ 74.67890625, 36.467333984374996 ], [ 74.678515625, 36.467333984374996 ], [ 74.678515625, 36.466992187499997 ], [ 74.677734375, 36.466992187499997 ], [ 74.677734375, 36.466650390624999 ], [ 74.67734375, 36.466650390624999 ], [ 74.67734375, 36.46630859375 ], [ 74.676953125, 36.46630859375 ], [ 74.676953125, 36.465966796875001 ], [ 74.6765625, 36.465966796875001 ], [ 74.6765625, 36.465625 ], [ 74.676171875, 36.465625 ], [ 74.676171875, 36.465283203124997 ], [ 74.67578125, 36.465283203124997 ], [ 74.67578125, 36.464599609375 ], [ 74.675390625, 36.464599609375 ], [ 74.675390625, 36.464257812500001 ], [ 74.675, 36.464257812500001 ], [ 74.675, 36.463574218749997 ], [ 74.674609375, 36.463574218749997 ], [ 74.674609375, 36.462890625 ], [ 74.67421875, 36.462890625 ], [ 74.67421875, 36.461865234374997 ], [ 74.673828125, 36.461865234374997 ], [ 74.673828125, 36.45947265625 ], [ 74.6734375, 36.45947265625 ], [ 74.6734375, 36.459130859375001 ], [ 74.673828125, 36.459130859375001 ], [ 74.673828125, 36.456738281249997 ], [ 74.67421875, 36.456738281249997 ], [ 74.67421875, 36.455712890625001 ], [ 74.674609375, 36.455712890625001 ], [ 74.674609375, 36.455029296874997 ], [ 74.675, 36.455029296874997 ], [ 74.675, 36.454345703125 ], [ 74.675390625, 36.454345703125 ], [ 74.675390625, 36.454003906250001 ], [ 74.67578125, 36.454003906250001 ], [ 74.67578125, 36.453320312499997 ], [ 74.676171875, 36.453320312499997 ], [ 74.676171875, 36.452978515624999 ], [ 74.6765625, 36.452978515624999 ], [ 74.6765625, 36.45263671875 ], [ 74.676953125, 36.45263671875 ], [ 74.676953125, 36.452294921875001 ], [ 74.67734375, 36.452294921875001 ], [ 74.67734375, 36.451953125 ], [ 74.677734375, 36.451953125 ], [ 74.677734375, 36.451611328124997 ], [ 74.678515625, 36.451611328124997 ], [ 74.678515625, 36.451269531249999 ], [ 74.67890625, 36.451269531249999 ], [ 74.67890625, 36.450927734375 ], [ 74.6796875, 36.450927734375 ], [ 74.6796875, 36.450585937500001 ], [ 74.68046875, 36.450585937500001 ], [ 74.68046875, 36.450244140624996 ], [ 74.681640625, 36.450244140624996 ], [ 74.681640625, 36.449902343749997 ], [ 74.684375, 36.449902343749997 ], [ 74.684375, 36.449560546874999 ], [ 74.684765625, 36.449560546874999 ], [ 74.684765625, 36.449902343749997 ], [ 74.6875, 36.449902343749997 ], [ 74.6875, 36.450244140624996 ], [ 74.688671875, 36.450244140624996 ], [ 74.688671875, 36.450585937500001 ], [ 74.689453125, 36.450585937500001 ], [ 74.689453125, 36.450927734375 ], [ 74.690234375, 36.450927734375 ], [ 74.690234375, 36.451269531249999 ], [ 74.690625, 36.451269531249999 ], [ 74.690625, 36.451611328124997 ], [ 74.69140625, 36.451611328124997 ], [ 74.69140625, 36.451953125 ], [ 74.691796875, 36.451953125 ], [ 74.691796875, 36.452294921875001 ], [ 74.6921875, 36.452294921875001 ], [ 74.6921875, 36.45263671875 ], [ 74.692578125, 36.45263671875 ], [ 74.692578125, 36.452978515624999 ], [ 74.69296875, 36.452978515624999 ], [ 74.69296875, 36.453320312499997 ], [ 74.693359375, 36.453320312499997 ], [ 74.693359375, 36.454003906250001 ], [ 74.69375, 36.454003906250001 ], [ 74.69375, 36.454345703125 ], [ 74.694140625, 36.454345703125 ], [ 74.694140625, 36.455029296874997 ], [ 74.69453125, 36.455029296874997 ], [ 74.69453125, 36.455712890625001 ], [ 74.694921875, 36.455712890625001 ], [ 74.694921875, 36.456738281249997 ], [ 74.6953125, 36.456738281249997 ], [ 74.6953125, 36.459130859375001 ], [ 74.695703125, 36.459130859375001 ], [ 74.695703125, 36.45947265625 ], [ 74.6953125, 36.45947265625 ], [ 74.6953125, 36.461865234374997 ], [ 74.694921875, 36.461865234374997 ], [ 74.694921875, 36.462890625 ], [ 74.69453125, 36.462890625 ], [ 74.69453125, 36.463574218749997 ], [ 74.694140625, 36.463574218749997 ], [ 74.694140625, 36.464257812500001 ], [ 74.69375, 36.464257812500001 ], [ 74.69375, 36.464599609375 ], [ 74.693359375, 36.464599609375 ], [ 74.693359375, 36.465283203124997 ], [ 74.69296875, 36.465283203124997 ], [ 74.69296875, 36.465625 ], [ 74.692578125, 36.465625 ], [ 74.692578125, 36.465966796875001 ], [ 74.6921875, 36.465966796875001 ], [ 74.6921875, 36.46630859375 ], [ 74.691796875, 36.46630859375 ], [ 74.691796875, 36.466650390624999 ], [ 74.69140625, 36.466650390624999 ], [ 74.69140625, 36.466992187499997 ], [ 74.690625, 36.466992187499997 ], [ 74.690625, 36.467333984374996 ], [ 74.690234375, 36.467333984374996 ], [ 74.690234375, 36.467675781250001 ], [ 74.689453125, 36.467675781250001 ], [ 74.689453125, 36.468017578125 ], [ 74.688671875, 36.468017578125 ], [ 74.688671875, 36.468359375 ], [ 74.6875, 36.468359375 ], [ 74.6875, 36.468701171874997 ], [ 74.684765625, 36.468701171874997 ], [ 74.684765625, 36.469042968749996 ], [ 74.684375, 36.469042968749996 ] ] ] } }
]
}
